<?xml version="1.0" encoding="UTF-8"?>
<gpx version="1.1" creator="MountainMadness seed (approximate, from waypoints)" xmlns="http://www.topografix.com/GPX/1/1">
  <metadata><name>French Ridge Hut — Mount Aspiring</name></metadata>
  <trk><name>West Matukituki & French Ridge</name><trkseg>
      <trkpt lat="-44.5081001" lon="168.7098841"><ele>473.7</ele><time>2026-08-09T04:30:20.000Z</time></trkpt>
      <trkpt lat="-44.5079521" lon="168.7101289"><ele>464.4</ele><time>2026-08-09T04:30:38.000Z</time></trkpt>
      <trkpt lat="-44.5077995" lon="168.7103616"><ele>453.2</ele><time>2026-08-09T04:30:56.000Z</time></trkpt>
      <trkpt lat="-44.5076270" lon="168.7105628"><ele>448.7</ele><time>2026-08-09T04:31:14.000Z</time></trkpt>
      <trkpt lat="-44.5074844" lon="168.7108033"><ele>440.5</ele><time>2026-08-09T04:31:37.000Z</time></trkpt>
      <trkpt lat="-44.5073319" lon="168.7110478"><ele>437.5</ele><time>2026-08-09T04:31:54.000Z</time></trkpt>
      <trkpt lat="-44.5071647" lon="168.7112754"><ele>427.7</ele><time>2026-08-09T04:32:18.000Z</time></trkpt>
      <trkpt lat="-44.5070019" lon="168.7115059"><ele>421.4</ele><time>2026-08-09T04:32:37.000Z</time></trkpt>
      <trkpt lat="-44.5068639" lon="168.7117108"><ele>413.0</ele><time>2026-08-09T04:32:55.000Z</time></trkpt>
      <trkpt lat="-44.5066913" lon="168.7119512"><ele>408.3</ele><time>2026-08-09T04:33:18.000Z</time></trkpt>
      <trkpt lat="-44.5065313" lon="168.7121920"><ele>407.5</ele><time>2026-08-09T04:33:34.000Z</time></trkpt>
      <trkpt lat="-44.5063683" lon="168.7123930"><ele>404.7</ele><time>2026-08-09T04:33:58.000Z</time></trkpt>
      <trkpt lat="-44.5062326" lon="168.7126418"><ele>403.5</ele><time>2026-08-09T04:34:16.000Z</time></trkpt>
      <trkpt lat="-44.5060809" lon="168.7128729"><ele>401.4</ele><time>2026-08-09T04:34:38.000Z</time></trkpt>
      <trkpt lat="-44.5059044" lon="168.7130866"><ele>399.4</ele><time>2026-08-09T04:34:55.000Z</time></trkpt>
      <trkpt lat="-44.5057502" lon="168.7133016"><ele>399.0</ele><time>2026-08-09T04:35:14.000Z</time></trkpt>
      <trkpt lat="-44.5055961" lon="168.7135362"><ele>400.1</ele><time>2026-08-09T04:35:30.000Z</time></trkpt>
      <trkpt lat="-44.5054328" lon="168.7137565"><ele>401.8</ele><time>2026-08-09T04:35:54.000Z</time></trkpt>
      <trkpt lat="-44.5052983" lon="168.7140020"><ele>398.1</ele><time>2026-08-09T04:36:11.000Z</time></trkpt>
      <trkpt lat="-44.5051291" lon="168.7142040"><ele>400.8</ele><time>2026-08-09T04:36:33.000Z</time></trkpt>
      <trkpt lat="-44.5049632" lon="168.7144279"><ele>399.9</ele><time>2026-08-09T04:36:53.000Z</time></trkpt>
      <trkpt lat="-44.5048194" lon="168.7146787"><ele>398.4</ele><time>2026-08-09T04:37:10.000Z</time></trkpt>
      <trkpt lat="-44.5046716" lon="168.7149077"><ele>400.1</ele><time>2026-08-09T04:37:26.000Z</time></trkpt>
      <trkpt lat="-44.5045078" lon="168.7151303"><ele>398.1</ele><time>2026-08-09T04:37:42.000Z</time></trkpt>
      <trkpt lat="-44.5043621" lon="168.7153429"><ele>399.2</ele><time>2026-08-09T04:38:02.000Z</time></trkpt>
      <trkpt lat="-44.5042031" lon="168.7155808"><ele>397.5</ele><time>2026-08-09T04:38:24.000Z</time></trkpt>
      <trkpt lat="-44.5040302" lon="168.7158135"><ele>400.1</ele><time>2026-08-09T04:38:48.000Z</time></trkpt>
      <trkpt lat="-44.5038638" lon="168.7160290"><ele>398.8</ele><time>2026-08-09T04:39:07.000Z</time></trkpt>
      <trkpt lat="-44.5037165" lon="168.7162587"><ele>398.7</ele><time>2026-08-09T04:39:27.000Z</time></trkpt>
      <trkpt lat="-44.5035625" lon="168.7165062"><ele>400.7</ele><time>2026-08-09T04:39:50.000Z</time></trkpt>
      <trkpt lat="-44.5034155" lon="168.7167030"><ele>400.2</ele><time>2026-08-09T04:40:10.000Z</time></trkpt>
      <trkpt lat="-44.5032435" lon="168.7169490"><ele>402.0</ele><time>2026-08-09T04:40:29.000Z</time></trkpt>
      <trkpt lat="-44.5030887" lon="168.7171881"><ele>400.2</ele><time>2026-08-09T04:40:49.000Z</time></trkpt>
      <trkpt lat="-44.5029356" lon="168.7174148"><ele>401.0</ele><time>2026-08-09T04:41:10.000Z</time></trkpt>
      <trkpt lat="-44.5027927" lon="168.7176343"><ele>403.7</ele><time>2026-08-09T04:41:30.000Z</time></trkpt>
      <trkpt lat="-44.5026294" lon="168.7178567"><ele>406.7</ele><time>2026-08-09T04:41:50.000Z</time></trkpt>
      <trkpt lat="-44.5024707" lon="168.7180846"><ele>410.5</ele><time>2026-08-09T04:42:09.000Z</time></trkpt>
      <trkpt lat="-44.5023154" lon="168.7183139"><ele>411.0</ele><time>2026-08-09T04:42:25.000Z</time></trkpt>
      <trkpt lat="-44.5021564" lon="168.7185556"><ele>415.0</ele><time>2026-08-09T04:42:46.000Z</time></trkpt>
      <trkpt lat="-44.5020166" lon="168.7187806"><ele>419.1</ele><time>2026-08-09T04:43:08.000Z</time></trkpt>
      <trkpt lat="-44.5018318" lon="168.7189875"><ele>425.0</ele><time>2026-08-09T04:43:26.000Z</time></trkpt>
      <trkpt lat="-44.5016927" lon="168.7192338"><ele>429.8</ele><time>2026-08-09T04:43:44.000Z</time></trkpt>
      <trkpt lat="-44.5015253" lon="168.7194272"><ele>438.8</ele><time>2026-08-09T04:44:04.000Z</time></trkpt>
      <trkpt lat="-44.5013639" lon="168.7196549"><ele>448.3</ele><time>2026-08-09T04:44:23.000Z</time></trkpt>
      <trkpt lat="-44.5012187" lon="168.7198831"><ele>458.0</ele><time>2026-08-09T04:44:46.000Z</time></trkpt>
      <trkpt lat="-44.5010516" lon="168.7201169"><ele>478.0</ele><time>2026-08-09T04:45:08.000Z</time></trkpt>
      <trkpt lat="-44.5009043" lon="168.7203743"><ele>501.6</ele><time>2026-08-09T04:45:31.000Z</time></trkpt>
      <trkpt lat="-44.5007385" lon="168.7205795"><ele>518.3</ele><time>2026-08-09T04:45:53.000Z</time></trkpt>
      <trkpt lat="-44.5006048" lon="168.7208123"><ele>539.8</ele><time>2026-08-09T04:46:15.000Z</time></trkpt>
      <trkpt lat="-44.5004391" lon="168.7210517"><ele>562.3</ele><time>2026-08-09T04:46:36.000Z</time></trkpt>
      <trkpt lat="-44.5002691" lon="168.7212816"><ele>595.8</ele><time>2026-08-09T04:47:00.000Z</time></trkpt>
      <trkpt lat="-44.5001273" lon="168.7214908"><ele>628.5</ele><time>2026-08-09T04:47:17.000Z</time></trkpt>
      <trkpt lat="-44.4999551" lon="168.7216988"><ele>644.6</ele><time>2026-08-09T04:47:37.000Z</time></trkpt>
      <trkpt lat="-44.4998024" lon="168.7219513"><ele>646.6</ele><time>2026-08-09T04:47:53.000Z</time></trkpt>
      <trkpt lat="-44.4996443" lon="168.7221540"><ele>643.9</ele><time>2026-08-09T04:48:14.000Z</time></trkpt>
      <trkpt lat="-44.4994864" lon="168.7224157"><ele>623.5</ele><time>2026-08-09T04:48:32.000Z</time></trkpt>
      <trkpt lat="-44.4993563" lon="168.7226185"><ele>596.7</ele><time>2026-08-09T04:48:52.000Z</time></trkpt>
      <trkpt lat="-44.4991828" lon="168.7228696"><ele>560.0</ele><time>2026-08-09T04:49:13.000Z</time></trkpt>
      <trkpt lat="-44.4990219" lon="168.7230860"><ele>538.9</ele><time>2026-08-09T04:49:33.000Z</time></trkpt>
      <trkpt lat="-44.4988621" lon="168.7233099"><ele>540.7</ele><time>2026-08-09T04:49:51.000Z</time></trkpt>
      <trkpt lat="-44.4987321" lon="168.7235412"><ele>550.0</ele><time>2026-08-09T04:50:07.000Z</time></trkpt>
      <trkpt lat="-44.4985483" lon="168.7237658"><ele>562.4</ele><time>2026-08-09T04:50:29.000Z</time></trkpt>
      <trkpt lat="-44.4984144" lon="168.7239718"><ele>571.5</ele><time>2026-08-09T04:50:47.000Z</time></trkpt>
      <trkpt lat="-44.4982368" lon="168.7242078"><ele>580.4</ele><time>2026-08-09T04:51:10.000Z</time></trkpt>
      <trkpt lat="-44.4981073" lon="168.7244442"><ele>590.8</ele><time>2026-08-09T04:51:31.000Z</time></trkpt>
      <trkpt lat="-44.4979429" lon="168.7246922"><ele>608.4</ele><time>2026-08-09T04:51:54.000Z</time></trkpt>
      <trkpt lat="-44.4977707" lon="168.7249026"><ele>628.8</ele><time>2026-08-09T04:52:12.000Z</time></trkpt>
      <trkpt lat="-44.4976372" lon="168.7251228"><ele>644.9</ele><time>2026-08-09T04:52:34.000Z</time></trkpt>
      <trkpt lat="-44.4974692" lon="168.7253346"><ele>654.2</ele><time>2026-08-09T04:52:57.000Z</time></trkpt>
      <trkpt lat="-44.4972990" lon="168.7255620"><ele>663.1</ele><time>2026-08-09T04:53:18.000Z</time></trkpt>
      <trkpt lat="-44.4971403" lon="168.7258264"><ele>665.3</ele><time>2026-08-09T04:53:41.000Z</time></trkpt>
      <trkpt lat="-44.4969899" lon="168.7260445"><ele>670.1</ele><time>2026-08-09T04:53:59.000Z</time></trkpt>
      <trkpt lat="-44.4968351" lon="168.7262693"><ele>681.0</ele><time>2026-08-09T04:54:21.000Z</time></trkpt>
      <trkpt lat="-44.4966874" lon="168.7264764"><ele>691.4</ele><time>2026-08-09T04:54:38.000Z</time></trkpt>
      <trkpt lat="-44.4965237" lon="168.7267378"><ele>698.3</ele><time>2026-08-09T04:55:00.000Z</time></trkpt>
      <trkpt lat="-44.4963849" lon="168.7269344"><ele>705.6</ele><time>2026-08-09T04:55:17.000Z</time></trkpt>
      <trkpt lat="-44.4962221" lon="168.7271558"><ele>715.5</ele><time>2026-08-09T04:55:35.000Z</time></trkpt>
      <trkpt lat="-44.4960612" lon="168.7274042"><ele>731.6</ele><time>2026-08-09T04:55:56.000Z</time></trkpt>
      <trkpt lat="-44.4959186" lon="168.7276383"><ele>746.8</ele><time>2026-08-09T04:56:15.000Z</time></trkpt>
      <trkpt lat="-44.4957439" lon="168.7278379"><ele>760.2</ele><time>2026-08-09T04:56:37.000Z</time></trkpt>
      <trkpt lat="-44.4955840" lon="168.7280760"><ele>774.1</ele><time>2026-08-09T04:56:59.000Z</time></trkpt>
      <trkpt lat="-44.4954326" lon="168.7282922"><ele>795.7</ele><time>2026-08-09T04:57:21.000Z</time></trkpt>
      <trkpt lat="-44.4952661" lon="168.7285380"><ele>818.1</ele><time>2026-08-09T04:57:39.000Z</time></trkpt>
      <trkpt lat="-44.4951139" lon="168.7287463"><ele>831.5</ele><time>2026-08-09T04:57:56.000Z</time></trkpt>
      <trkpt lat="-44.4949665" lon="168.7290049"><ele>837.0</ele><time>2026-08-09T04:58:16.000Z</time></trkpt>
      <trkpt lat="-44.4948152" lon="168.7292276"><ele>844.4</ele><time>2026-08-09T04:58:39.000Z</time></trkpt>
      <trkpt lat="-44.4946508" lon="168.7294291"><ele>864.3</ele><time>2026-08-09T04:59:02.000Z</time></trkpt>
      <trkpt lat="-44.4944961" lon="168.7296670"><ele>901.2</ele><time>2026-08-09T04:59:25.000Z</time></trkpt>
      <trkpt lat="-44.4943335" lon="168.7298851"><ele>930.9</ele><time>2026-08-09T04:59:42.000Z</time></trkpt>
      <trkpt lat="-44.4941972" lon="168.7301189"><ele>965.7</ele><time>2026-08-09T05:00:00.000Z</time></trkpt>
      <trkpt lat="-44.4940137" lon="168.7303467"><ele>1002.5</ele><time>2026-08-09T05:00:17.000Z</time></trkpt>
      <trkpt lat="-44.4938722" lon="168.7305890"><ele>1027.5</ele><time>2026-08-09T05:00:36.000Z</time></trkpt>
      <trkpt lat="-44.4937290" lon="168.7308026"><ele>1046.5</ele><time>2026-08-09T05:00:57.000Z</time></trkpt>
      <trkpt lat="-44.4935616" lon="168.7310471"><ele>1065.1</ele><time>2026-08-09T05:01:17.000Z</time></trkpt>
      <trkpt lat="-44.4934012" lon="168.7312471"><ele>1080.6</ele><time>2026-08-09T05:01:38.000Z</time></trkpt>
      <trkpt lat="-44.4932502" lon="168.7314989"><ele>1093.8</ele><time>2026-08-09T05:01:55.000Z</time></trkpt>
      <trkpt lat="-44.4930891" lon="168.7317114"><ele>1104.2</ele><time>2026-08-09T05:02:16.000Z</time></trkpt>
      <trkpt lat="-44.4929205" lon="168.7319263"><ele>1111.6</ele><time>2026-08-09T05:02:36.000Z</time></trkpt>
      <trkpt lat="-44.4927689" lon="168.7321574"><ele>1119.6</ele><time>2026-08-09T05:02:55.000Z</time></trkpt>
      <trkpt lat="-44.4926128" lon="168.7324200"><ele>1128.4</ele><time>2026-08-09T05:03:11.000Z</time></trkpt>
      <trkpt lat="-44.4924658" lon="168.7326301"><ele>1142.3</ele><time>2026-08-09T05:03:33.000Z</time></trkpt>
      <trkpt lat="-44.4923045" lon="168.7328460"><ele>1158.1</ele><time>2026-08-09T05:03:49.000Z</time></trkpt>
      <trkpt lat="-44.4921575" lon="168.7330830"><ele>1176.0</ele><time>2026-08-09T05:04:07.000Z</time></trkpt>
      <trkpt lat="-44.4919806" lon="168.7332983"><ele>1192.1</ele><time>2026-08-09T05:04:31.000Z</time></trkpt>
      <trkpt lat="-44.4918303" lon="168.7335242"><ele>1212.0</ele><time>2026-08-09T05:04:50.000Z</time></trkpt>
      <trkpt lat="-44.4916719" lon="168.7337450"><ele>1230.7</ele><time>2026-08-09T05:05:08.000Z</time></trkpt>
      <trkpt lat="-44.4915174" lon="168.7339945"><ele>1247.3</ele><time>2026-08-09T05:05:28.000Z</time></trkpt>
      <trkpt lat="-44.4913726" lon="168.7342331"><ele>1255.6</ele><time>2026-08-09T05:05:50.000Z</time></trkpt>
      <trkpt lat="-44.4912106" lon="168.7344644"><ele>1279.4</ele><time>2026-08-09T05:06:11.000Z</time></trkpt>
      <trkpt lat="-44.4910466" lon="168.7346604"><ele>1316.5</ele><time>2026-08-09T05:06:27.000Z</time></trkpt>
      <trkpt lat="-44.4909047" lon="168.7349040"><ele>1353.7</ele><time>2026-08-09T05:06:46.000Z</time></trkpt>
      <trkpt lat="-44.4907395" lon="168.7351414"><ele>1377.5</ele><time>2026-08-09T05:07:02.000Z</time></trkpt>
      <trkpt lat="-44.4905752" lon="168.7353485"><ele>1395.4</ele><time>2026-08-09T05:07:23.000Z</time></trkpt>
      <trkpt lat="-44.4904324" lon="168.7355939"><ele>1409.5</ele><time>2026-08-09T05:07:43.000Z</time></trkpt>
      <trkpt lat="-44.4902619" lon="168.7358095"><ele>1405.9</ele><time>2026-08-09T05:08:02.000Z</time></trkpt>
      <trkpt lat="-44.4901189" lon="168.7360498"><ele>1404.6</ele><time>2026-08-09T05:08:24.000Z</time></trkpt>
      <trkpt lat="-44.4899681" lon="168.7362681"><ele>1406.6</ele><time>2026-08-09T05:08:41.000Z</time></trkpt>
      <trkpt lat="-44.4897960" lon="168.7365062"><ele>1408.8</ele><time>2026-08-09T05:09:02.000Z</time></trkpt>
      <trkpt lat="-44.4896515" lon="168.7367233"><ele>1419.1</ele><time>2026-08-09T05:09:23.000Z</time></trkpt>
      <trkpt lat="-44.4894981" lon="168.7369331"><ele>1429.4</ele><time>2026-08-09T05:09:41.000Z</time></trkpt>
      <trkpt lat="-44.4893400" lon="168.7371681"><ele>1429.8</ele><time>2026-08-09T05:10:02.000Z</time></trkpt>
      <trkpt lat="-44.4891881" lon="168.7374146"><ele>1440.3</ele><time>2026-08-09T05:10:20.000Z</time></trkpt>
      <trkpt lat="-44.4890198" lon="168.7376454"><ele>1449.1</ele><time>2026-08-09T05:10:36.000Z</time></trkpt>
      <trkpt lat="-44.4888697" lon="168.7378451"><ele>1457.0</ele><time>2026-08-09T05:10:58.000Z</time></trkpt>
      <trkpt lat="-44.4886963" lon="168.7380839"><ele>1471.5</ele><time>2026-08-09T05:11:18.000Z</time></trkpt>
      <trkpt lat="-44.4885582" lon="168.7382999"><ele>1490.3</ele><time>2026-08-09T05:11:41.000Z</time></trkpt>
      <trkpt lat="-44.4884110" lon="168.7385186"><ele>1512.9</ele><time>2026-08-09T05:11:59.000Z</time></trkpt>
      <trkpt lat="-44.4882549" lon="168.7387810"><ele>1523.0</ele><time>2026-08-09T05:12:17.000Z</time></trkpt>
      <trkpt lat="-44.4880998" lon="168.7390076"><ele>1532.4</ele><time>2026-08-09T05:12:41.000Z</time></trkpt>
      <trkpt lat="-44.4879214" lon="168.7392067"><ele>1537.3</ele><time>2026-08-09T05:13:04.000Z</time></trkpt>
      <trkpt lat="-44.4877624" lon="168.7394518"><ele>1534.0</ele><time>2026-08-09T05:13:26.000Z</time></trkpt>
      <trkpt lat="-44.4876200" lon="168.7396639"><ele>1527.2</ele><time>2026-08-09T05:13:47.000Z</time></trkpt>
      <trkpt lat="-44.4874709" lon="168.7398866"><ele>1521.1</ele><time>2026-08-09T05:14:09.000Z</time></trkpt>
      <trkpt lat="-44.4873028" lon="168.7401288"><ele>1517.1</ele><time>2026-08-09T05:14:27.000Z</time></trkpt>
      <trkpt lat="-44.4871358" lon="168.7403673"><ele>1518.4</ele><time>2026-08-09T05:14:51.000Z</time></trkpt>
      <trkpt lat="-44.4869875" lon="168.7405910"><ele>1513.5</ele><time>2026-08-09T05:15:15.000Z</time></trkpt>
      <trkpt lat="-44.4868393" lon="168.7407954"><ele>1513.6</ele><time>2026-08-09T05:15:31.000Z</time></trkpt>
      <trkpt lat="-44.4866716" lon="168.7410319"><ele>1511.7</ele><time>2026-08-09T05:15:52.000Z</time></trkpt>
      <trkpt lat="-44.4865116" lon="168.7412532"><ele>1512.6</ele><time>2026-08-09T05:16:14.000Z</time></trkpt>
      <trkpt lat="-44.4863531" lon="168.7414942"><ele>1510.2</ele><time>2026-08-09T05:16:38.000Z</time></trkpt>
      <trkpt lat="-44.4862017" lon="168.7417301"><ele>1513.0</ele><time>2026-08-09T05:16:59.000Z</time></trkpt>
      <trkpt lat="-44.4860470" lon="168.7419422"><ele>1512.1</ele><time>2026-08-09T05:17:18.000Z</time></trkpt>
      <trkpt lat="-44.4858984" lon="168.7421678"><ele>1516.0</ele><time>2026-08-09T05:17:40.000Z</time></trkpt>
      <trkpt lat="-44.4857513" lon="168.7423965"><ele>1516.9</ele><time>2026-08-09T05:17:56.000Z</time></trkpt>
      <trkpt lat="-44.4855899" lon="168.7426334"><ele>1517.2</ele><time>2026-08-09T05:18:16.000Z</time></trkpt>
      <trkpt lat="-44.4854403" lon="168.7428537"><ele>1516.6</ele><time>2026-08-09T05:18:36.000Z</time></trkpt>
      <trkpt lat="-44.4852642" lon="168.7430894"><ele>1516.7</ele><time>2026-08-09T05:18:54.000Z</time></trkpt>
      <trkpt lat="-44.4851048" lon="168.7433245"><ele>1522.4</ele><time>2026-08-09T05:19:12.000Z</time></trkpt>
      <trkpt lat="-44.4849625" lon="168.7435187"><ele>1535.3</ele><time>2026-08-09T05:19:32.000Z</time></trkpt>
      <trkpt lat="-44.4847992" lon="168.7437779"><ele>1561.0</ele><time>2026-08-09T05:19:50.000Z</time></trkpt>
      <trkpt lat="-44.4846599" lon="168.7439710"><ele>1590.7</ele><time>2026-08-09T05:20:09.000Z</time></trkpt>
      <trkpt lat="-44.4844817" lon="168.7442028"><ele>1621.7</ele><time>2026-08-09T05:20:28.000Z</time></trkpt>
      <trkpt lat="-44.4843461" lon="168.7444397"><ele>1643.6</ele><time>2026-08-09T05:20:50.000Z</time></trkpt>
      <trkpt lat="-44.4841881" lon="168.7446833"><ele>1658.2</ele><time>2026-08-09T05:21:09.000Z</time></trkpt>
      <trkpt lat="-44.4840265" lon="168.7448982"><ele>1679.1</ele><time>2026-08-09T05:21:33.000Z</time></trkpt>
      <trkpt lat="-44.4838778" lon="168.7451303"><ele>1703.9</ele><time>2026-08-09T05:21:56.000Z</time></trkpt>
      <trkpt lat="-44.4837084" lon="168.7453572"><ele>1729.6</ele><time>2026-08-09T05:22:15.000Z</time></trkpt>
      <trkpt lat="-44.4835498" lon="168.7455973"><ele>1747.0</ele><time>2026-08-09T05:22:35.000Z</time></trkpt>
      <trkpt lat="-44.4834084" lon="168.7458166"><ele>1755.4</ele><time>2026-08-09T05:22:57.000Z</time></trkpt>
      <trkpt lat="-44.4832321" lon="168.7460525"><ele>1761.4</ele><time>2026-08-09T05:23:22.000Z</time></trkpt>
      <trkpt lat="-44.4830796" lon="168.7462501"><ele>1769.1</ele><time>2026-08-09T05:23:47.000Z</time></trkpt>
      <trkpt lat="-44.4829139" lon="168.7464853"><ele>1776.6</ele><time>2026-08-09T05:24:07.000Z</time></trkpt>
      <trkpt lat="-44.4827739" lon="168.7467248"><ele>1789.5</ele><time>2026-08-09T05:24:32.000Z</time></trkpt>
      <trkpt lat="-44.4826052" lon="168.7469348"><ele>1803.7</ele><time>2026-08-09T05:24:58.000Z</time></trkpt>
      <trkpt lat="-44.4824580" lon="168.7471754"><ele>1812.8</ele><time>2026-08-09T05:25:25.000Z</time></trkpt>
      <trkpt lat="-44.4823137" lon="168.7473890"><ele>1816.9</ele><time>2026-08-09T05:25:49.000Z</time></trkpt>
      <trkpt lat="-44.4821360" lon="168.7476439"><ele>1814.1</ele><time>2026-08-09T05:26:09.000Z</time></trkpt>
      <trkpt lat="-44.4819776" lon="168.7478497"><ele>1798.9</ele><time>2026-08-09T05:26:30.000Z</time></trkpt>
      <trkpt lat="-44.4818328" lon="168.7480962"><ele>1774.9</ele><time>2026-08-09T05:26:54.000Z</time></trkpt>
      <trkpt lat="-44.4816692" lon="168.7482904"><ele>1741.3</ele><time>2026-08-09T05:27:18.000Z</time></trkpt>
      <trkpt lat="-44.4815122" lon="168.7485557"><ele>1702.7</ele><time>2026-08-09T05:27:44.000Z</time></trkpt>
      <trkpt lat="-44.4813713" lon="168.7487779"><ele>1668.2</ele><time>2026-08-09T05:28:04.000Z</time></trkpt>
      <trkpt lat="-44.4812170" lon="168.7490104"><ele>1641.8</ele><time>2026-08-09T05:28:25.000Z</time></trkpt>
      <trkpt lat="-44.4810437" lon="168.7492048"><ele>1623.1</ele><time>2026-08-09T05:28:45.000Z</time></trkpt>
      <trkpt lat="-44.4809000" lon="168.7494605"><ele>1607.4</ele><time>2026-08-09T05:29:04.000Z</time></trkpt>
      <trkpt lat="-44.4807455" lon="168.7496927"><ele>1592.6</ele><time>2026-08-09T05:29:23.000Z</time></trkpt>
      <trkpt lat="-44.4805916" lon="168.7499046"><ele>1596.5</ele><time>2026-08-09T05:29:47.000Z</time></trkpt>
      <trkpt lat="-44.4804188" lon="168.7501280"><ele>1600.3</ele><time>2026-08-09T05:30:11.000Z</time></trkpt>
      <trkpt lat="-44.4802778" lon="168.7503370"><ele>1610.7</ele><time>2026-08-09T05:30:30.000Z</time></trkpt>
      <trkpt lat="-44.4801046" lon="168.7505823"><ele>1620.5</ele><time>2026-08-09T05:30:51.000Z</time></trkpt>
      <trkpt lat="-44.4799470" lon="168.7508139"><ele>1631.5</ele><time>2026-08-09T05:31:11.000Z</time></trkpt>
      <trkpt lat="-44.4797891" lon="168.7510338"><ele>1649.7</ele><time>2026-08-09T05:31:32.000Z</time></trkpt>
      <trkpt lat="-44.4796478" lon="168.7512808"><ele>1668.8</ele><time>2026-08-09T05:31:50.000Z</time></trkpt>
      <trkpt lat="-44.4794842" lon="168.7514906"><ele>1679.4</ele><time>2026-08-09T05:32:13.000Z</time></trkpt>
      <trkpt lat="-44.4793288" lon="168.7517098"><ele>1690.5</ele><time>2026-08-09T05:32:35.000Z</time></trkpt>
      <trkpt lat="-44.4791754" lon="168.7519437"><ele>1700.9</ele><time>2026-08-09T05:33:00.000Z</time></trkpt>
      <trkpt lat="-44.4790285" lon="168.7521816"><ele>1714.3</ele><time>2026-08-09T05:33:22.000Z</time></trkpt>
      <trkpt lat="-44.4788659" lon="168.7523883"><ele>1728.1</ele><time>2026-08-09T05:33:41.000Z</time></trkpt>
      <trkpt lat="-44.4787007" lon="168.7526245"><ele>1741.0</ele><time>2026-08-09T05:34:02.000Z</time></trkpt>
      <trkpt lat="-44.4785393" lon="168.7528391"><ele>1740.3</ele><time>2026-08-09T05:34:22.000Z</time></trkpt>
      <trkpt lat="-44.4783821" lon="168.7530923"><ele>1728.5</ele><time>2026-08-09T05:34:46.000Z</time></trkpt>
      <trkpt lat="-44.4782400" lon="168.7533246"><ele>1709.6</ele><time>2026-08-09T05:35:06.000Z</time></trkpt>
      <trkpt lat="-44.4780919" lon="168.7535223"><ele>1696.7</ele><time>2026-08-09T05:35:29.000Z</time></trkpt>
      <trkpt lat="-44.4779329" lon="168.7537735"><ele>1683.5</ele><time>2026-08-09T05:35:47.000Z</time></trkpt>
      <trkpt lat="-44.4777508" lon="168.7540070"><ele>1672.1</ele><time>2026-08-09T05:36:12.000Z</time></trkpt>
      <trkpt lat="-44.4776117" lon="168.7542173"><ele>1660.7</ele><time>2026-08-09T05:36:37.000Z</time></trkpt>
      <trkpt lat="-44.4774501" lon="168.7544362"><ele>1648.5</ele><time>2026-08-09T05:36:59.000Z</time></trkpt>
      <trkpt lat="-44.4772991" lon="168.7546921"><ele>1633.5</ele><time>2026-08-09T05:37:18.000Z</time></trkpt>
      <trkpt lat="-44.4771489" lon="168.7549192"><ele>1619.8</ele><time>2026-08-09T05:37:39.000Z</time></trkpt>
      <trkpt lat="-44.4769748" lon="168.7551404"><ele>1603.3</ele><time>2026-08-09T05:38:00.000Z</time></trkpt>
      <trkpt lat="-44.4768193" lon="168.7553494"><ele>1593.8</ele><time>2026-08-09T05:38:24.000Z</time></trkpt>
      <trkpt lat="-44.4766799" lon="168.7555917"><ele>1579.5</ele><time>2026-08-09T05:38:44.000Z</time></trkpt>
      <trkpt lat="-44.4765046" lon="168.7558241"><ele>1566.3</ele><time>2026-08-09T05:39:08.000Z</time></trkpt>
      <trkpt lat="-44.4763488" lon="168.7560230"><ele>1549.5</ele><time>2026-08-09T05:39:26.000Z</time></trkpt>
      <trkpt lat="-44.4762043" lon="168.7562635"><ele>1533.3</ele><time>2026-08-09T05:39:47.000Z</time></trkpt>
      <trkpt lat="-44.4760592" lon="168.7564875"><ele>1510.3</ele><time>2026-08-09T05:40:07.000Z</time></trkpt>
      <trkpt lat="-44.4758981" lon="168.7567165"><ele>1481.8</ele><time>2026-08-09T05:40:26.000Z</time></trkpt>
      <trkpt lat="-44.4757416" lon="168.7569600"><ele>1458.2</ele><time>2026-08-09T05:40:44.000Z</time></trkpt>
      <trkpt lat="-44.4755664" lon="168.7571642"><ele>1435.0</ele><time>2026-08-09T05:41:00.000Z</time></trkpt>
      <trkpt lat="-44.4754246" lon="168.7574104"><ele>1413.7</ele><time>2026-08-09T05:41:18.000Z</time></trkpt>
      <trkpt lat="-44.4752524" lon="168.7576248"><ele>1390.5</ele><time>2026-08-09T05:41:41.000Z</time></trkpt>
      <trkpt lat="-44.4750982" lon="168.7578365"><ele>1375.6</ele><time>2026-08-09T05:41:59.000Z</time></trkpt>
      <trkpt lat="-44.4749582" lon="168.7581006"><ele>1362.3</ele><time>2026-08-09T05:42:19.000Z</time></trkpt>
      <trkpt lat="-44.4748005" lon="168.7582962"><ele>1351.6</ele><time>2026-08-09T05:42:39.000Z</time></trkpt>
      <trkpt lat="-44.4746453" lon="168.7585174"><ele>1339.3</ele><time>2026-08-09T05:43:00.000Z</time></trkpt>
      <trkpt lat="-44.4744705" lon="168.7587682"><ele>1328.9</ele><time>2026-08-09T05:43:20.000Z</time></trkpt>
      <trkpt lat="-44.4743315" lon="168.7589744"><ele>1321.3</ele><time>2026-08-09T05:43:41.000Z</time></trkpt>
      <trkpt lat="-44.4741713" lon="168.7592264"><ele>1314.2</ele><time>2026-08-09T05:44:01.000Z</time></trkpt>
      <trkpt lat="-44.4739989" lon="168.7594401"><ele>1306.7</ele><time>2026-08-09T05:44:23.000Z</time></trkpt>
      <trkpt lat="-44.4738668" lon="168.7596623"><ele>1299.7</ele><time>2026-08-09T05:44:42.000Z</time></trkpt>
      <trkpt lat="-44.4737047" lon="168.7598913"><ele>1298.4</ele><time>2026-08-09T05:45:00.000Z</time></trkpt>
      <trkpt lat="-44.4735535" lon="168.7596704"><ele>1306.7</ele><time>2026-08-09T05:45:22.000Z</time></trkpt>
      <trkpt lat="-44.4733902" lon="168.7594381"><ele>1315.7</ele><time>2026-08-09T05:45:41.000Z</time></trkpt>
      <trkpt lat="-44.4732538" lon="168.7591810"><ele>1323.8</ele><time>2026-08-09T05:46:05.000Z</time></trkpt>
      <trkpt lat="-44.4730884" lon="168.7589756"><ele>1335.1</ele><time>2026-08-09T05:46:21.000Z</time></trkpt>
      <trkpt lat="-44.4729252" lon="168.7587400"><ele>1345.0</ele><time>2026-08-09T05:46:38.000Z</time></trkpt>
      <trkpt lat="-44.4727834" lon="168.7584972"><ele>1355.3</ele><time>2026-08-09T05:46:56.000Z</time></trkpt>
      <trkpt lat="-44.4726253" lon="168.7582855"><ele>1365.4</ele><time>2026-08-09T05:47:14.000Z</time></trkpt>
      <trkpt lat="-44.4724781" lon="168.7580530"><ele>1377.3</ele><time>2026-08-09T05:47:36.000Z</time></trkpt>
      <trkpt lat="-44.4723066" lon="168.7577903"><ele>1391.1</ele><time>2026-08-09T05:48:00.000Z</time></trkpt>
      <trkpt lat="-44.4721550" lon="168.7575492"><ele>1404.6</ele><time>2026-08-09T05:48:21.000Z</time></trkpt>
      <trkpt lat="-44.4720219" lon="168.7573376"><ele>1421.1</ele><time>2026-08-09T05:48:42.000Z</time></trkpt>
      <trkpt lat="-44.4718644" lon="168.7571103"><ele>1433.0</ele><time>2026-08-09T05:48:58.000Z</time></trkpt>
      <trkpt lat="-44.4717158" lon="168.7568852"><ele>1447.2</ele><time>2026-08-09T05:49:21.000Z</time></trkpt>
      <trkpt lat="-44.4715527" lon="168.7566246"><ele>1465.7</ele><time>2026-08-09T05:49:41.000Z</time></trkpt>
      <trkpt lat="-44.4713993" lon="168.7564110"><ele>1480.2</ele><time>2026-08-09T05:49:57.000Z</time></trkpt>
  </trkseg></trk>
</gpx>
