<?xml version="1.0" encoding="UTF-8"?>
<gpx version="1.1" creator="MountainMadness seed (approximate, from waypoints)" xmlns="http://www.topografix.com/GPX/1/1">
  <metadata><name>Gran Paradiso — Via Chabod Hut</name></metadata>
  <trk><name>Via Chabod Hut</name><trkseg>
      <trkpt lat="45.5320000" lon="7.2094085"><ele>1956.8</ele><time>2025-06-22T04:30:28.000Z</time></trkpt>
      <trkpt lat="45.5320012" lon="7.2097116"><ele>1967.5</ele><time>2025-06-22T04:30:54.000Z</time></trkpt>
      <trkpt lat="45.5319725" lon="7.2100547"><ele>1976.7</ele><time>2025-06-22T04:31:20.000Z</time></trkpt>
      <trkpt lat="45.5319877" lon="7.2103796"><ele>1994.3</ele><time>2025-06-22T04:31:48.000Z</time></trkpt>
      <trkpt lat="45.5319754" lon="7.2106990"><ele>2009.3</ele><time>2025-06-22T04:32:12.000Z</time></trkpt>
      <trkpt lat="45.5319692" lon="7.2110114"><ele>2026.1</ele><time>2025-06-22T04:32:37.000Z</time></trkpt>
      <trkpt lat="45.5319564" lon="7.2113471"><ele>2043.5</ele><time>2025-06-22T04:33:03.000Z</time></trkpt>
      <trkpt lat="45.5319692" lon="7.2116597"><ele>2061.4</ele><time>2025-06-22T04:33:28.000Z</time></trkpt>
      <trkpt lat="45.5319554" lon="7.2119535"><ele>2078.0</ele><time>2025-06-22T04:33:51.000Z</time></trkpt>
      <trkpt lat="45.5319310" lon="7.2122971"><ele>2090.7</ele><time>2025-06-22T04:34:14.000Z</time></trkpt>
      <trkpt lat="45.5319385" lon="7.2126150"><ele>2099.9</ele><time>2025-06-22T04:34:38.000Z</time></trkpt>
      <trkpt lat="45.5319208" lon="7.2129385"><ele>2108.6</ele><time>2025-06-22T04:35:08.000Z</time></trkpt>
      <trkpt lat="45.5319097" lon="7.2132703"><ele>2117.5</ele><time>2025-06-22T04:35:38.000Z</time></trkpt>
      <trkpt lat="45.5319133" lon="7.2135908"><ele>2129.2</ele><time>2025-06-22T04:36:07.000Z</time></trkpt>
      <trkpt lat="45.5319143" lon="7.2138839"><ele>2141.1</ele><time>2025-06-22T04:36:36.000Z</time></trkpt>
      <trkpt lat="45.5318900" lon="7.2142205"><ele>2150.1</ele><time>2025-06-22T04:37:00.000Z</time></trkpt>
      <trkpt lat="45.5318965" lon="7.2145395"><ele>2159.7</ele><time>2025-06-22T04:37:30.000Z</time></trkpt>
      <trkpt lat="45.5318931" lon="7.2148615"><ele>2172.8</ele><time>2025-06-22T04:37:56.000Z</time></trkpt>
      <trkpt lat="45.5318954" lon="7.2151985"><ele>2180.9</ele><time>2025-06-22T04:38:21.000Z</time></trkpt>
      <trkpt lat="45.5318883" lon="7.2154982"><ele>2195.8</ele><time>2025-06-22T04:38:45.000Z</time></trkpt>
      <trkpt lat="45.5318817" lon="7.2158172"><ele>2205.5</ele><time>2025-06-22T04:39:12.000Z</time></trkpt>
      <trkpt lat="45.5318546" lon="7.2161397"><ele>2215.6</ele><time>2025-06-22T04:39:41.000Z</time></trkpt>
      <trkpt lat="45.5318637" lon="7.2164547"><ele>2225.7</ele><time>2025-06-22T04:40:10.000Z</time></trkpt>
      <trkpt lat="45.5318563" lon="7.2167883"><ele>2237.0</ele><time>2025-06-22T04:40:35.000Z</time></trkpt>
      <trkpt lat="45.5318587" lon="7.2171138"><ele>2248.1</ele><time>2025-06-22T04:40:59.000Z</time></trkpt>
      <trkpt lat="45.5318376" lon="7.2174324"><ele>2255.6</ele><time>2025-06-22T04:41:26.000Z</time></trkpt>
      <trkpt lat="45.5318437" lon="7.2177697"><ele>2264.4</ele><time>2025-06-22T04:41:54.000Z</time></trkpt>
      <trkpt lat="45.5318267" lon="7.2180743"><ele>2275.5</ele><time>2025-06-22T04:42:23.000Z</time></trkpt>
      <trkpt lat="45.5318126" lon="7.2183837"><ele>2281.6</ele><time>2025-06-22T04:42:54.000Z</time></trkpt>
      <trkpt lat="45.5318090" lon="7.2187251"><ele>2288.6</ele><time>2025-06-22T04:43:24.000Z</time></trkpt>
      <trkpt lat="45.5318138" lon="7.2190545"><ele>2291.4</ele><time>2025-06-22T04:43:52.000Z</time></trkpt>
      <trkpt lat="45.5317880" lon="7.2193546"><ele>2304.2</ele><time>2025-06-22T04:44:19.000Z</time></trkpt>
      <trkpt lat="45.5317874" lon="7.2196716"><ele>2311.3</ele><time>2025-06-22T04:44:51.000Z</time></trkpt>
      <trkpt lat="45.5317954" lon="7.2200151"><ele>2315.6</ele><time>2025-06-22T04:45:21.000Z</time></trkpt>
      <trkpt lat="45.5317750" lon="7.2203157"><ele>2322.5</ele><time>2025-06-22T04:45:51.000Z</time></trkpt>
      <trkpt lat="45.5317841" lon="7.2206313"><ele>2331.7</ele><time>2025-06-22T04:46:24.000Z</time></trkpt>
      <trkpt lat="45.5317745" lon="7.2209675"><ele>2337.9</ele><time>2025-06-22T04:46:52.000Z</time></trkpt>
      <trkpt lat="45.5317730" lon="7.2212796"><ele>2342.2</ele><time>2025-06-22T04:47:21.000Z</time></trkpt>
      <trkpt lat="45.5317676" lon="7.2216144"><ele>2346.8</ele><time>2025-06-22T04:47:49.000Z</time></trkpt>
      <trkpt lat="45.5317605" lon="7.2219158"><ele>2355.1</ele><time>2025-06-22T04:48:16.000Z</time></trkpt>
      <trkpt lat="45.5317485" lon="7.2222379"><ele>2360.2</ele><time>2025-06-22T04:48:48.000Z</time></trkpt>
      <trkpt lat="45.5317260" lon="7.2225917"><ele>2364.5</ele><time>2025-06-22T04:49:15.000Z</time></trkpt>
      <trkpt lat="45.5317251" lon="7.2228889"><ele>2368.9</ele><time>2025-06-22T04:49:47.000Z</time></trkpt>
      <trkpt lat="45.5317130" lon="7.2232182"><ele>2377.5</ele><time>2025-06-22T04:50:18.000Z</time></trkpt>
      <trkpt lat="45.5317150" lon="7.2235430"><ele>2381.9</ele><time>2025-06-22T04:50:44.000Z</time></trkpt>
      <trkpt lat="45.5317172" lon="7.2238738"><ele>2386.9</ele><time>2025-06-22T04:51:13.000Z</time></trkpt>
      <trkpt lat="45.5317116" lon="7.2241729"><ele>2393.7</ele><time>2025-06-22T04:51:43.000Z</time></trkpt>
      <trkpt lat="45.5317093" lon="7.2245175"><ele>2398.8</ele><time>2025-06-22T04:52:12.000Z</time></trkpt>
      <trkpt lat="45.5316793" lon="7.2248390"><ele>2406.3</ele><time>2025-06-22T04:52:40.000Z</time></trkpt>
      <trkpt lat="45.5316730" lon="7.2251461"><ele>2408.8</ele><time>2025-06-22T04:53:08.000Z</time></trkpt>
      <trkpt lat="45.5316674" lon="7.2254670"><ele>2414.2</ele><time>2025-06-22T04:53:36.000Z</time></trkpt>
      <trkpt lat="45.5316797" lon="7.2257788"><ele>2420.5</ele><time>2025-06-22T04:54:07.000Z</time></trkpt>
      <trkpt lat="45.5316603" lon="7.2260971"><ele>2426.1</ele><time>2025-06-22T04:54:34.000Z</time></trkpt>
      <trkpt lat="45.5316503" lon="7.2264370"><ele>2431.9</ele><time>2025-06-22T04:55:07.000Z</time></trkpt>
      <trkpt lat="45.5316475" lon="7.2267403"><ele>2434.0</ele><time>2025-06-22T04:55:34.000Z</time></trkpt>
      <trkpt lat="45.5316540" lon="7.2270776"><ele>2442.7</ele><time>2025-06-22T04:56:04.000Z</time></trkpt>
      <trkpt lat="45.5316498" lon="7.2273980"><ele>2444.8</ele><time>2025-06-22T04:56:35.000Z</time></trkpt>
      <trkpt lat="45.5316398" lon="7.2276998"><ele>2451.7</ele><time>2025-06-22T04:57:07.000Z</time></trkpt>
      <trkpt lat="45.5316347" lon="7.2280152"><ele>2456.1</ele><time>2025-06-22T04:57:34.000Z</time></trkpt>
      <trkpt lat="45.5316135" lon="7.2283724"><ele>2463.0</ele><time>2025-06-22T04:58:04.000Z</time></trkpt>
      <trkpt lat="45.5316113" lon="7.2286654"><ele>2471.9</ele><time>2025-06-22T04:58:33.000Z</time></trkpt>
      <trkpt lat="45.5316091" lon="7.2289833"><ele>2479.2</ele><time>2025-06-22T04:59:07.000Z</time></trkpt>
      <trkpt lat="45.5316191" lon="7.2293054"><ele>2492.0</ele><time>2025-06-22T04:59:40.000Z</time></trkpt>
      <trkpt lat="45.5315851" lon="7.2296274"><ele>2502.1</ele><time>2025-06-22T05:00:14.000Z</time></trkpt>
      <trkpt lat="45.5315881" lon="7.2299538"><ele>2513.1</ele><time>2025-06-22T05:00:45.000Z</time></trkpt>
      <trkpt lat="45.5315706" lon="7.2302878"><ele>2524.7</ele><time>2025-06-22T05:01:16.000Z</time></trkpt>
      <trkpt lat="45.5315811" lon="7.2305973"><ele>2535.9</ele><time>2025-06-22T05:01:49.000Z</time></trkpt>
      <trkpt lat="45.5315701" lon="7.2309274"><ele>2547.1</ele><time>2025-06-22T05:02:17.000Z</time></trkpt>
      <trkpt lat="45.5315710" lon="7.2312538"><ele>2557.8</ele><time>2025-06-22T05:02:48.000Z</time></trkpt>
      <trkpt lat="45.5315719" lon="7.2315548"><ele>2569.9</ele><time>2025-06-22T05:03:16.000Z</time></trkpt>
      <trkpt lat="45.5315679" lon="7.2318702"><ele>2579.8</ele><time>2025-06-22T05:03:48.000Z</time></trkpt>
      <trkpt lat="45.5315583" lon="7.2322056"><ele>2592.3</ele><time>2025-06-22T05:04:21.000Z</time></trkpt>
      <trkpt lat="45.5315271" lon="7.2325376"><ele>2600.6</ele><time>2025-06-22T05:04:49.000Z</time></trkpt>
      <trkpt lat="45.5315304" lon="7.2328731"><ele>2614.5</ele><time>2025-06-22T05:05:23.000Z</time></trkpt>
      <trkpt lat="45.5315424" lon="7.2331700"><ele>2625.3</ele><time>2025-06-22T05:05:54.000Z</time></trkpt>
      <trkpt lat="45.5315166" lon="7.2334760"><ele>2633.8</ele><time>2025-06-22T05:06:26.000Z</time></trkpt>
      <trkpt lat="45.5315039" lon="7.2337990"><ele>2647.7</ele><time>2025-06-22T05:06:55.000Z</time></trkpt>
      <trkpt lat="45.5315049" lon="7.2341222"><ele>2657.0</ele><time>2025-06-22T05:07:29.000Z</time></trkpt>
      <trkpt lat="45.5315157" lon="7.2344707"><ele>2668.5</ele><time>2025-06-22T05:08:01.000Z</time></trkpt>
      <trkpt lat="45.5314992" lon="7.2347801"><ele>2676.4</ele><time>2025-06-22T05:08:31.000Z</time></trkpt>
      <trkpt lat="45.5314884" lon="7.2350994"><ele>2681.8</ele><time>2025-06-22T05:09:05.000Z</time></trkpt>
      <trkpt lat="45.5314707" lon="7.2354375"><ele>2686.3</ele><time>2025-06-22T05:09:34.000Z</time></trkpt>
      <trkpt lat="45.5314710" lon="7.2357365"><ele>2692.3</ele><time>2025-06-22T05:10:06.000Z</time></trkpt>
      <trkpt lat="45.5314599" lon="7.2360768"><ele>2694.7</ele><time>2025-06-22T05:10:36.000Z</time></trkpt>
      <trkpt lat="45.5314780" lon="7.2364030"><ele>2698.6</ele><time>2025-06-22T05:11:10.000Z</time></trkpt>
      <trkpt lat="45.5314634" lon="7.2367276"><ele>2702.3</ele><time>2025-06-22T05:11:39.000Z</time></trkpt>
      <trkpt lat="45.5314390" lon="7.2370218"><ele>2706.0</ele><time>2025-06-22T05:12:14.000Z</time></trkpt>
      <trkpt lat="45.5314381" lon="7.2373352"><ele>2711.0</ele><time>2025-06-22T05:12:48.000Z</time></trkpt>
      <trkpt lat="45.5314438" lon="7.2376797"><ele>2719.7</ele><time>2025-06-22T05:13:22.000Z</time></trkpt>
      <trkpt lat="45.5314410" lon="7.2379834"><ele>2724.5</ele><time>2025-06-22T05:13:53.000Z</time></trkpt>
      <trkpt lat="45.5314290" lon="7.2383048"><ele>2733.0</ele><time>2025-06-22T05:14:26.000Z</time></trkpt>
      <trkpt lat="45.5314102" lon="7.2386238"><ele>2738.5</ele><time>2025-06-22T05:14:59.000Z</time></trkpt>
      <trkpt lat="45.5314124" lon="7.2389700"><ele>2745.4</ele><time>2025-06-22T05:15:36.000Z</time></trkpt>
      <trkpt lat="45.5314042" lon="7.2392784"><ele>2748.9</ele><time>2025-06-22T05:16:10.000Z</time></trkpt>
      <trkpt lat="45.5313896" lon="7.2396096"><ele>2754.9</ele><time>2025-06-22T05:16:46.000Z</time></trkpt>
      <trkpt lat="45.5312666" lon="7.2398833"><ele>2764.4</ele><time>2025-06-22T05:17:19.000Z</time></trkpt>
      <trkpt lat="45.5311562" lon="7.2401434"><ele>2773.8</ele><time>2025-06-22T05:17:51.000Z</time></trkpt>
      <trkpt lat="45.5310143" lon="7.2404073"><ele>2780.8</ele><time>2025-06-22T05:18:26.000Z</time></trkpt>
      <trkpt lat="45.5308991" lon="7.2406626"><ele>2790.1</ele><time>2025-06-22T05:18:56.000Z</time></trkpt>
      <trkpt lat="45.5307635" lon="7.2409378"><ele>2800.5</ele><time>2025-06-22T05:19:29.000Z</time></trkpt>
      <trkpt lat="45.5306578" lon="7.2411983"><ele>2807.2</ele><time>2025-06-22T05:20:02.000Z</time></trkpt>
      <trkpt lat="45.5305312" lon="7.2414390"><ele>2818.7</ele><time>2025-06-22T05:20:32.000Z</time></trkpt>
      <trkpt lat="45.5303917" lon="7.2417378"><ele>2828.6</ele><time>2025-06-22T05:21:09.000Z</time></trkpt>
      <trkpt lat="45.5302673" lon="7.2419731"><ele>2836.9</ele><time>2025-06-22T05:21:47.000Z</time></trkpt>
      <trkpt lat="45.5301619" lon="7.2422384"><ele>2846.9</ele><time>2025-06-22T05:22:24.000Z</time></trkpt>
      <trkpt lat="45.5300325" lon="7.2425085"><ele>2856.3</ele><time>2025-06-22T05:22:59.000Z</time></trkpt>
      <trkpt lat="45.5299016" lon="7.2427939"><ele>2864.2</ele><time>2025-06-22T05:23:30.000Z</time></trkpt>
      <trkpt lat="45.5297853" lon="7.2430518"><ele>2873.9</ele><time>2025-06-22T05:24:08.000Z</time></trkpt>
      <trkpt lat="45.5296636" lon="7.2433146"><ele>2878.8</ele><time>2025-06-22T05:24:45.000Z</time></trkpt>
      <trkpt lat="45.5295371" lon="7.2435675"><ele>2889.3</ele><time>2025-06-22T05:25:17.000Z</time></trkpt>
      <trkpt lat="45.5294200" lon="7.2438477"><ele>2900.1</ele><time>2025-06-22T05:25:50.000Z</time></trkpt>
      <trkpt lat="45.5292773" lon="7.2441028"><ele>2909.3</ele><time>2025-06-22T05:26:27.000Z</time></trkpt>
      <trkpt lat="45.5291526" lon="7.2443757"><ele>2921.4</ele><time>2025-06-22T05:27:06.000Z</time></trkpt>
      <trkpt lat="45.5290289" lon="7.2446268"><ele>2933.8</ele><time>2025-06-22T05:27:39.000Z</time></trkpt>
      <trkpt lat="45.5288956" lon="7.2449050"><ele>2946.6</ele><time>2025-06-22T05:28:16.000Z</time></trkpt>
      <trkpt lat="45.5287810" lon="7.2451805"><ele>2960.5</ele><time>2025-06-22T05:28:55.000Z</time></trkpt>
      <trkpt lat="45.5286532" lon="7.2454361"><ele>2972.6</ele><time>2025-06-22T05:29:30.000Z</time></trkpt>
      <trkpt lat="45.5285413" lon="7.2456824"><ele>2981.4</ele><time>2025-06-22T05:30:09.000Z</time></trkpt>
      <trkpt lat="45.5284244" lon="7.2459649"><ele>2992.3</ele><time>2025-06-22T05:30:43.000Z</time></trkpt>
      <trkpt lat="45.5282803" lon="7.2462372"><ele>2999.5</ele><time>2025-06-22T05:31:16.000Z</time></trkpt>
      <trkpt lat="45.5281686" lon="7.2465131"><ele>3007.9</ele><time>2025-06-22T05:31:54.000Z</time></trkpt>
      <trkpt lat="45.5280413" lon="7.2467733"><ele>3013.3</ele><time>2025-06-22T05:32:31.000Z</time></trkpt>
      <trkpt lat="45.5279227" lon="7.2470310"><ele>3022.4</ele><time>2025-06-22T05:33:09.000Z</time></trkpt>
      <trkpt lat="45.5278032" lon="7.2472989"><ele>3029.4</ele><time>2025-06-22T05:33:44.000Z</time></trkpt>
      <trkpt lat="45.5276633" lon="7.2475746"><ele>3037.6</ele><time>2025-06-22T05:34:18.000Z</time></trkpt>
      <trkpt lat="45.5275354" lon="7.2478049"><ele>3041.1</ele><time>2025-06-22T05:34:56.000Z</time></trkpt>
      <trkpt lat="45.5274072" lon="7.2480734"><ele>3047.6</ele><time>2025-06-22T05:35:34.000Z</time></trkpt>
      <trkpt lat="45.5272872" lon="7.2483539"><ele>3053.9</ele><time>2025-06-22T05:36:09.000Z</time></trkpt>
      <trkpt lat="45.5271591" lon="7.2486275"><ele>3055.2</ele><time>2025-06-22T05:36:50.000Z</time></trkpt>
      <trkpt lat="45.5270324" lon="7.2488755"><ele>3058.5</ele><time>2025-06-22T05:37:29.000Z</time></trkpt>
      <trkpt lat="45.5269136" lon="7.2491446"><ele>3063.0</ele><time>2025-06-22T05:38:05.000Z</time></trkpt>
      <trkpt lat="45.5267838" lon="7.2494240"><ele>3065.6</ele><time>2025-06-22T05:38:43.000Z</time></trkpt>
      <trkpt lat="45.5266703" lon="7.2496847"><ele>3071.5</ele><time>2025-06-22T05:39:16.000Z</time></trkpt>
      <trkpt lat="45.5265342" lon="7.2499388"><ele>3075.0</ele><time>2025-06-22T05:39:52.000Z</time></trkpt>
      <trkpt lat="45.5264161" lon="7.2501992"><ele>3082.4</ele><time>2025-06-22T05:40:32.000Z</time></trkpt>
      <trkpt lat="45.5262967" lon="7.2504767"><ele>3088.4</ele><time>2025-06-22T05:41:05.000Z</time></trkpt>
      <trkpt lat="45.5261764" lon="7.2507272"><ele>3097.3</ele><time>2025-06-22T05:41:43.000Z</time></trkpt>
      <trkpt lat="45.5260491" lon="7.2510215"><ele>3102.9</ele><time>2025-06-22T05:42:17.000Z</time></trkpt>
      <trkpt lat="45.5259114" lon="7.2512564"><ele>3111.4</ele><time>2025-06-22T05:42:55.000Z</time></trkpt>
      <trkpt lat="45.5258109" lon="7.2515415"><ele>3119.7</ele><time>2025-06-22T05:43:34.000Z</time></trkpt>
      <trkpt lat="45.5256819" lon="7.2518164"><ele>3125.4</ele><time>2025-06-22T05:44:08.000Z</time></trkpt>
      <trkpt lat="45.5255507" lon="7.2520624"><ele>3136.6</ele><time>2025-06-22T05:44:45.000Z</time></trkpt>
      <trkpt lat="45.5254141" lon="7.2523229"><ele>3142.6</ele><time>2025-06-22T05:45:21.000Z</time></trkpt>
      <trkpt lat="45.5253073" lon="7.2525918"><ele>3152.1</ele><time>2025-06-22T05:46:00.000Z</time></trkpt>
      <trkpt lat="45.5251321" lon="7.2528207"><ele>3161.4</ele><time>2025-06-22T05:46:35.000Z</time></trkpt>
      <trkpt lat="45.5249999" lon="7.2530716"><ele>3175.1</ele><time>2025-06-22T05:47:17.000Z</time></trkpt>
      <trkpt lat="45.5248283" lon="7.2532907"><ele>3183.5</ele><time>2025-06-22T05:47:55.000Z</time></trkpt>
      <trkpt lat="45.5246714" lon="7.2535053"><ele>3192.2</ele><time>2025-06-22T05:48:31.000Z</time></trkpt>
      <trkpt lat="45.5245136" lon="7.2537398"><ele>3202.2</ele><time>2025-06-22T05:49:12.000Z</time></trkpt>
      <trkpt lat="45.5243571" lon="7.2539856"><ele>3213.5</ele><time>2025-06-22T05:49:53.000Z</time></trkpt>
      <trkpt lat="45.5242007" lon="7.2542000"><ele>3222.9</ele><time>2025-06-22T05:50:34.000Z</time></trkpt>
      <trkpt lat="45.5240340" lon="7.2544085"><ele>3229.8</ele><time>2025-06-22T05:51:15.000Z</time></trkpt>
      <trkpt lat="45.5238762" lon="7.2546418"><ele>3241.5</ele><time>2025-06-22T05:51:50.000Z</time></trkpt>
      <trkpt lat="45.5237135" lon="7.2548931"><ele>3247.6</ele><time>2025-06-22T05:52:26.000Z</time></trkpt>
      <trkpt lat="45.5235757" lon="7.2550854"><ele>3258.8</ele><time>2025-06-22T05:53:07.000Z</time></trkpt>
      <trkpt lat="45.5234066" lon="7.2553504"><ele>3267.3</ele><time>2025-06-22T05:53:47.000Z</time></trkpt>
      <trkpt lat="45.5232530" lon="7.2555701"><ele>3271.1</ele><time>2025-06-22T05:54:25.000Z</time></trkpt>
      <trkpt lat="45.5230831" lon="7.2557885"><ele>3280.4</ele><time>2025-06-22T05:55:03.000Z</time></trkpt>
      <trkpt lat="45.5229338" lon="7.2560184"><ele>3283.1</ele><time>2025-06-22T05:55:39.000Z</time></trkpt>
      <trkpt lat="45.5227708" lon="7.2562615"><ele>3290.6</ele><time>2025-06-22T05:56:21.000Z</time></trkpt>
      <trkpt lat="45.5226348" lon="7.2564606"><ele>3297.6</ele><time>2025-06-22T05:57:00.000Z</time></trkpt>
      <trkpt lat="45.5224608" lon="7.2567068"><ele>3303.7</ele><time>2025-06-22T05:57:39.000Z</time></trkpt>
      <trkpt lat="45.5223232" lon="7.2569275"><ele>3313.6</ele><time>2025-06-22T05:58:18.000Z</time></trkpt>
      <trkpt lat="45.5221404" lon="7.2571514"><ele>3321.7</ele><time>2025-06-22T05:58:59.000Z</time></trkpt>
      <trkpt lat="45.5219877" lon="7.2573984"><ele>3331.6</ele><time>2025-06-22T05:59:41.000Z</time></trkpt>
      <trkpt lat="45.5218321" lon="7.2576137"><ele>3342.8</ele><time>2025-06-22T06:00:22.000Z</time></trkpt>
      <trkpt lat="45.5216742" lon="7.2578359"><ele>3356.6</ele><time>2025-06-22T06:01:05.000Z</time></trkpt>
      <trkpt lat="45.5215307" lon="7.2580751"><ele>3371.0</ele><time>2025-06-22T06:01:49.000Z</time></trkpt>
      <trkpt lat="45.5213647" lon="7.2582978"><ele>3385.1</ele><time>2025-06-22T06:02:29.000Z</time></trkpt>
      <trkpt lat="45.5211967" lon="7.2585106"><ele>3398.4</ele><time>2025-06-22T06:03:10.000Z</time></trkpt>
      <trkpt lat="45.5210455" lon="7.2587283"><ele>3412.9</ele><time>2025-06-22T06:03:47.000Z</time></trkpt>
      <trkpt lat="45.5209055" lon="7.2589855"><ele>3430.1</ele><time>2025-06-22T06:04:31.000Z</time></trkpt>
      <trkpt lat="45.5207451" lon="7.2592069"><ele>3451.5</ele><time>2025-06-22T06:05:14.000Z</time></trkpt>
      <trkpt lat="45.5205883" lon="7.2594119"><ele>3473.3</ele><time>2025-06-22T06:05:51.000Z</time></trkpt>
      <trkpt lat="45.5204055" lon="7.2596548"><ele>3496.7</ele><time>2025-06-22T06:06:31.000Z</time></trkpt>
      <trkpt lat="45.5202540" lon="7.2598914"><ele>3515.5</ele><time>2025-06-22T06:07:11.000Z</time></trkpt>
      <trkpt lat="45.5201130" lon="7.2601183"><ele>3535.4</ele><time>2025-06-22T06:07:49.000Z</time></trkpt>
      <trkpt lat="45.5199541" lon="7.2603241"><ele>3547.2</ele><time>2025-06-22T06:08:30.000Z</time></trkpt>
      <trkpt lat="45.5197884" lon="7.2605559"><ele>3559.2</ele><time>2025-06-22T06:09:13.000Z</time></trkpt>
      <trkpt lat="45.5196422" lon="7.2608082"><ele>3574.1</ele><time>2025-06-22T06:09:51.000Z</time></trkpt>
      <trkpt lat="45.5194836" lon="7.2610160"><ele>3585.5</ele><time>2025-06-22T06:10:34.000Z</time></trkpt>
      <trkpt lat="45.5193052" lon="7.2612378"><ele>3598.5</ele><time>2025-06-22T06:11:14.000Z</time></trkpt>
      <trkpt lat="45.5191714" lon="7.2614712"><ele>3610.8</ele><time>2025-06-22T06:11:57.000Z</time></trkpt>
      <trkpt lat="45.5189974" lon="7.2617015"><ele>3627.3</ele><time>2025-06-22T06:12:41.000Z</time></trkpt>
      <trkpt lat="45.5188328" lon="7.2619512"><ele>3652.5</ele><time>2025-06-22T06:13:22.000Z</time></trkpt>
      <trkpt lat="45.5186731" lon="7.2621780"><ele>3669.8</ele><time>2025-06-22T06:14:06.000Z</time></trkpt>
      <trkpt lat="45.5185202" lon="7.2623961"><ele>3686.8</ele><time>2025-06-22T06:14:52.000Z</time></trkpt>
      <trkpt lat="45.5183808" lon="7.2626124"><ele>3700.4</ele><time>2025-06-22T06:15:39.000Z</time></trkpt>
      <trkpt lat="45.5182138" lon="7.2628407"><ele>3716.4</ele><time>2025-06-22T06:16:19.000Z</time></trkpt>
      <trkpt lat="45.5180613" lon="7.2630635"><ele>3730.6</ele><time>2025-06-22T06:16:59.000Z</time></trkpt>
      <trkpt lat="45.5178911" lon="7.2632825"><ele>3746.6</ele><time>2025-06-22T06:17:41.000Z</time></trkpt>
      <trkpt lat="45.5178134" lon="7.2635884"><ele>3765.2</ele><time>2025-06-22T06:18:29.000Z</time></trkpt>
      <trkpt lat="45.5177440" lon="7.2638771"><ele>3775.7</ele><time>2025-06-22T06:19:17.000Z</time></trkpt>
      <trkpt lat="45.5176465" lon="7.2641735"><ele>3812.6</ele><time>2025-06-22T06:20:04.000Z</time></trkpt>
      <trkpt lat="45.5175771" lon="7.2644902"><ele>3844.0</ele><time>2025-06-22T06:20:51.000Z</time></trkpt>
      <trkpt lat="45.5174921" lon="7.2647536"><ele>3866.7</ele><time>2025-06-22T06:21:34.000Z</time></trkpt>
      <trkpt lat="45.5174160" lon="7.2650716"><ele>3888.0</ele><time>2025-06-22T06:22:17.000Z</time></trkpt>
      <trkpt lat="45.5173340" lon="7.2653395"><ele>3904.8</ele><time>2025-06-22T06:22:59.000Z</time></trkpt>
      <trkpt lat="45.5172576" lon="7.2656305"><ele>3918.1</ele><time>2025-06-22T06:23:48.000Z</time></trkpt>
      <trkpt lat="45.5171762" lon="7.2659437"><ele>3932.2</ele><time>2025-06-22T06:24:30.000Z</time></trkpt>
      <trkpt lat="45.5170814" lon="7.2662519"><ele>3942.2</ele><time>2025-06-22T06:25:13.000Z</time></trkpt>
      <trkpt lat="45.5170196" lon="7.2665155"><ele>3955.1</ele><time>2025-06-22T06:26:00.000Z</time></trkpt>
      <trkpt lat="45.5169283" lon="7.2668170"><ele>3961.9</ele><time>2025-06-22T06:26:48.000Z</time></trkpt>
      <trkpt lat="45.5168472" lon="7.2671289"><ele>3971.3</ele><time>2025-06-22T06:27:32.000Z</time></trkpt>
      <trkpt lat="45.5167542" lon="7.2674311"><ele>3975.9</ele><time>2025-06-22T06:28:20.000Z</time></trkpt>
      <trkpt lat="45.5166820" lon="7.2677075"><ele>3979.7</ele><time>2025-06-22T06:29:09.000Z</time></trkpt>
      <trkpt lat="45.5165946" lon="7.2680002"><ele>3980.3</ele><time>2025-06-22T06:29:53.000Z</time></trkpt>
      <trkpt lat="45.5167074" lon="7.2682118"><ele>3981.7</ele><time>2025-06-22T06:30:39.000Z</time></trkpt>
  </trkseg></trk>
</gpx>
