<?xml version="1.0" encoding="UTF-8"?>
<gpx version="1.1" creator="MountainMadness seed (approximate, from waypoints)" xmlns="http://www.topografix.com/GPX/1/1">
  <metadata><name>Mont Blanc — Italian Route via Gonella</name></metadata>
  <trk><name>Italian Route (Via del Papa) via Gonella</name><trkseg>
      <trkpt lat="45.8167032" lon="6.8182180"><ele>2752.2</ele><time>2025-06-26T04:30:34.000Z</time></trkpt>
      <trkpt lat="45.8169079" lon="6.8182402"><ele>2757.1</ele><time>2025-06-26T04:31:04.000Z</time></trkpt>
      <trkpt lat="45.8171446" lon="6.8183301"><ele>2763.1</ele><time>2025-06-26T04:31:38.000Z</time></trkpt>
      <trkpt lat="45.8173725" lon="6.8183840"><ele>2764.0</ele><time>2025-06-26T04:32:08.000Z</time></trkpt>
      <trkpt lat="45.8175727" lon="6.8184314"><ele>2782.1</ele><time>2025-06-26T04:32:41.000Z</time></trkpt>
      <trkpt lat="45.8178059" lon="6.8184924"><ele>2800.0</ele><time>2025-06-26T04:33:18.000Z</time></trkpt>
      <trkpt lat="45.8180158" lon="6.8185660"><ele>2815.9</ele><time>2025-06-26T04:33:53.000Z</time></trkpt>
      <trkpt lat="45.8182360" lon="6.8186297"><ele>2834.1</ele><time>2025-06-26T04:34:28.000Z</time></trkpt>
      <trkpt lat="45.8184776" lon="6.8186543"><ele>2847.7</ele><time>2025-06-26T04:34:58.000Z</time></trkpt>
      <trkpt lat="45.8186897" lon="6.8187208"><ele>2861.5</ele><time>2025-06-26T04:35:29.000Z</time></trkpt>
      <trkpt lat="45.8189192" lon="6.8187878"><ele>2871.8</ele><time>2025-06-26T04:36:00.000Z</time></trkpt>
      <trkpt lat="45.8191175" lon="6.8188318"><ele>2880.8</ele><time>2025-06-26T04:36:33.000Z</time></trkpt>
      <trkpt lat="45.8193557" lon="6.8189011"><ele>2888.6</ele><time>2025-06-26T04:37:08.000Z</time></trkpt>
      <trkpt lat="45.8195569" lon="6.8189518"><ele>2900.0</ele><time>2025-06-26T04:37:41.000Z</time></trkpt>
      <trkpt lat="45.8198014" lon="6.8190152"><ele>2910.3</ele><time>2025-06-26T04:38:19.000Z</time></trkpt>
      <trkpt lat="45.8199976" lon="6.8190600"><ele>2925.3</ele><time>2025-06-26T04:38:53.000Z</time></trkpt>
      <trkpt lat="45.8202260" lon="6.8191522"><ele>2937.1</ele><time>2025-06-26T04:39:26.000Z</time></trkpt>
      <trkpt lat="45.8204450" lon="6.8192126"><ele>2953.9</ele><time>2025-06-26T04:39:59.000Z</time></trkpt>
      <trkpt lat="45.8206625" lon="6.8192741"><ele>2969.1</ele><time>2025-06-26T04:40:32.000Z</time></trkpt>
      <trkpt lat="45.8208929" lon="6.8193328"><ele>2983.1</ele><time>2025-06-26T04:41:10.000Z</time></trkpt>
      <trkpt lat="45.8211067" lon="6.8193562"><ele>2992.0</ele><time>2025-06-26T04:41:44.000Z</time></trkpt>
      <trkpt lat="45.8213347" lon="6.8194307"><ele>3007.0</ele><time>2025-06-26T04:42:23.000Z</time></trkpt>
      <trkpt lat="45.8215459" lon="6.8194976"><ele>3014.3</ele><time>2025-06-26T04:42:57.000Z</time></trkpt>
      <trkpt lat="45.8217827" lon="6.8195457"><ele>3023.3</ele><time>2025-06-26T04:43:30.000Z</time></trkpt>
      <trkpt lat="45.8219847" lon="6.8195891"><ele>3028.4</ele><time>2025-06-26T04:44:07.000Z</time></trkpt>
      <trkpt lat="45.8222312" lon="6.8196516"><ele>3039.6</ele><time>2025-06-26T04:44:42.000Z</time></trkpt>
      <trkpt lat="45.8224303" lon="6.8197230"><ele>3047.1</ele><time>2025-06-26T04:45:20.000Z</time></trkpt>
      <trkpt lat="45.8226723" lon="6.8197751"><ele>3055.0</ele><time>2025-06-26T04:45:58.000Z</time></trkpt>
      <trkpt lat="45.8228768" lon="6.8198266"><ele>3062.6</ele><time>2025-06-26T04:46:36.000Z</time></trkpt>
      <trkpt lat="45.8230918" lon="6.8198885"><ele>3072.7</ele><time>2025-06-26T04:47:12.000Z</time></trkpt>
      <trkpt lat="45.8231799" lon="6.8202145"><ele>3081.9</ele><time>2025-06-26T04:47:45.000Z</time></trkpt>
      <trkpt lat="45.8232803" lon="6.8205102"><ele>3089.0</ele><time>2025-06-26T04:48:19.000Z</time></trkpt>
      <trkpt lat="45.8233541" lon="6.8207904"><ele>3096.2</ele><time>2025-06-26T04:48:57.000Z</time></trkpt>
      <trkpt lat="45.8234316" lon="6.8210997"><ele>3109.4</ele><time>2025-06-26T04:49:32.000Z</time></trkpt>
      <trkpt lat="45.8235470" lon="6.8214068"><ele>3122.4</ele><time>2025-06-26T04:50:10.000Z</time></trkpt>
      <trkpt lat="45.8236097" lon="6.8216771"><ele>3139.1</ele><time>2025-06-26T04:50:46.000Z</time></trkpt>
      <trkpt lat="45.8237051" lon="6.8220080"><ele>3161.9</ele><time>2025-06-26T04:51:23.000Z</time></trkpt>
      <trkpt lat="45.8237995" lon="6.8223052"><ele>3177.4</ele><time>2025-06-26T04:52:03.000Z</time></trkpt>
      <trkpt lat="45.8238873" lon="6.8225870"><ele>3214.1</ele><time>2025-06-26T04:52:45.000Z</time></trkpt>
      <trkpt lat="45.8239661" lon="6.8228938"><ele>3245.9</ele><time>2025-06-26T04:53:26.000Z</time></trkpt>
      <trkpt lat="45.8240529" lon="6.8231964"><ele>3278.8</ele><time>2025-06-26T04:54:03.000Z</time></trkpt>
      <trkpt lat="45.8241455" lon="6.8234992"><ele>3303.9</ele><time>2025-06-26T04:54:46.000Z</time></trkpt>
      <trkpt lat="45.8242169" lon="6.8238049"><ele>3324.8</ele><time>2025-06-26T04:55:25.000Z</time></trkpt>
      <trkpt lat="45.8243222" lon="6.8240801"><ele>3350.8</ele><time>2025-06-26T04:56:07.000Z</time></trkpt>
      <trkpt lat="45.8243867" lon="6.8243679"><ele>3372.2</ele><time>2025-06-26T04:56:43.000Z</time></trkpt>
      <trkpt lat="45.8244841" lon="6.8246959"><ele>3389.4</ele><time>2025-06-26T04:57:26.000Z</time></trkpt>
      <trkpt lat="45.8245838" lon="6.8249768"><ele>3409.7</ele><time>2025-06-26T04:58:09.000Z</time></trkpt>
      <trkpt lat="45.8246558" lon="6.8252870"><ele>3423.9</ele><time>2025-06-26T04:58:52.000Z</time></trkpt>
      <trkpt lat="45.8247433" lon="6.8255781"><ele>3433.8</ele><time>2025-06-26T04:59:32.000Z</time></trkpt>
      <trkpt lat="45.8248336" lon="6.8258926"><ele>3437.8</ele><time>2025-06-26T05:00:09.000Z</time></trkpt>
      <trkpt lat="45.8249311" lon="6.8261953"><ele>3443.7</ele><time>2025-06-26T05:00:50.000Z</time></trkpt>
      <trkpt lat="45.8250024" lon="6.8264848"><ele>3441.9</ele><time>2025-06-26T05:01:33.000Z</time></trkpt>
      <trkpt lat="45.8250749" lon="6.8267632"><ele>3438.7</ele><time>2025-06-26T05:02:12.000Z</time></trkpt>
      <trkpt lat="45.8251821" lon="6.8270793"><ele>3431.7</ele><time>2025-06-26T05:02:50.000Z</time></trkpt>
      <trkpt lat="45.8252526" lon="6.8273713"><ele>3423.1</ele><time>2025-06-26T05:03:30.000Z</time></trkpt>
      <trkpt lat="45.8253399" lon="6.8276638"><ele>3411.2</ele><time>2025-06-26T05:04:11.000Z</time></trkpt>
      <trkpt lat="45.8254487" lon="6.8279856"><ele>3394.1</ele><time>2025-06-26T05:04:54.000Z</time></trkpt>
      <trkpt lat="45.8255211" lon="6.8282869"><ele>3372.6</ele><time>2025-06-26T05:05:34.000Z</time></trkpt>
      <trkpt lat="45.8256036" lon="6.8285557"><ele>3360.1</ele><time>2025-06-26T05:06:10.000Z</time></trkpt>
      <trkpt lat="45.8257064" lon="6.8288617"><ele>3347.7</ele><time>2025-06-26T05:06:47.000Z</time></trkpt>
      <trkpt lat="45.8257958" lon="6.8291680"><ele>3338.0</ele><time>2025-06-26T05:07:23.000Z</time></trkpt>
      <trkpt lat="45.8258791" lon="6.8294688"><ele>3337.2</ele><time>2025-06-26T05:08:00.000Z</time></trkpt>
      <trkpt lat="45.8259555" lon="6.8297885"><ele>3333.3</ele><time>2025-06-26T05:08:40.000Z</time></trkpt>
      <trkpt lat="45.8260553" lon="6.8300880"><ele>3333.5</ele><time>2025-06-26T05:09:16.000Z</time></trkpt>
      <trkpt lat="45.8261276" lon="6.8303847"><ele>3322.5</ele><time>2025-06-26T05:09:59.000Z</time></trkpt>
      <trkpt lat="45.8262245" lon="6.8306867"><ele>3317.2</ele><time>2025-06-26T05:10:35.000Z</time></trkpt>
      <trkpt lat="45.8263079" lon="6.8309780"><ele>3310.1</ele><time>2025-06-26T05:11:14.000Z</time></trkpt>
      <trkpt lat="45.8263995" lon="6.8312662"><ele>3308.0</ele><time>2025-06-26T05:11:51.000Z</time></trkpt>
      <trkpt lat="45.8264845" lon="6.8315685"><ele>3306.4</ele><time>2025-06-26T05:12:30.000Z</time></trkpt>
      <trkpt lat="45.8265456" lon="6.8318542"><ele>3310.6</ele><time>2025-06-26T05:13:05.000Z</time></trkpt>
      <trkpt lat="45.8266356" lon="6.8321454"><ele>3310.7</ele><time>2025-06-26T05:13:41.000Z</time></trkpt>
      <trkpt lat="45.8267274" lon="6.8324669"><ele>3312.5</ele><time>2025-06-26T05:14:22.000Z</time></trkpt>
      <trkpt lat="45.8268232" lon="6.8327551"><ele>3319.8</ele><time>2025-06-26T05:14:59.000Z</time></trkpt>
      <trkpt lat="45.8268941" lon="6.8330561"><ele>3320.3</ele><time>2025-06-26T05:15:41.000Z</time></trkpt>
      <trkpt lat="45.8269914" lon="6.8333460"><ele>3327.3</ele><time>2025-06-26T05:16:17.000Z</time></trkpt>
      <trkpt lat="45.8270882" lon="6.8336672"><ele>3330.5</ele><time>2025-06-26T05:16:56.000Z</time></trkpt>
      <trkpt lat="45.8271776" lon="6.8339519"><ele>3334.7</ele><time>2025-06-26T05:17:34.000Z</time></trkpt>
      <trkpt lat="45.8272399" lon="6.8342665"><ele>3339.1</ele><time>2025-06-26T05:18:16.000Z</time></trkpt>
      <trkpt lat="45.8273236" lon="6.8345735"><ele>3340.4</ele><time>2025-06-26T05:18:59.000Z</time></trkpt>
      <trkpt lat="45.8274323" lon="6.8348425"><ele>3345.3</ele><time>2025-06-26T05:19:37.000Z</time></trkpt>
      <trkpt lat="45.8275029" lon="6.8351461"><ele>3343.8</ele><time>2025-06-26T05:20:17.000Z</time></trkpt>
      <trkpt lat="45.8275987" lon="6.8354610"><ele>3344.8</ele><time>2025-06-26T05:20:55.000Z</time></trkpt>
      <trkpt lat="45.8276741" lon="6.8357544"><ele>3343.2</ele><time>2025-06-26T05:21:35.000Z</time></trkpt>
      <trkpt lat="45.8277835" lon="6.8360544"><ele>3345.9</ele><time>2025-06-26T05:22:15.000Z</time></trkpt>
      <trkpt lat="45.8278577" lon="6.8363688"><ele>3349.5</ele><time>2025-06-26T05:22:56.000Z</time></trkpt>
      <trkpt lat="45.8279544" lon="6.8366395"><ele>3352.5</ele><time>2025-06-26T05:23:37.000Z</time></trkpt>
      <trkpt lat="45.8280425" lon="6.8369669"><ele>3359.1</ele><time>2025-06-26T05:24:19.000Z</time></trkpt>
      <trkpt lat="45.8281241" lon="6.8372424"><ele>3367.6</ele><time>2025-06-26T05:24:57.000Z</time></trkpt>
      <trkpt lat="45.8281903" lon="6.8375495"><ele>3378.5</ele><time>2025-06-26T05:25:33.000Z</time></trkpt>
      <trkpt lat="45.8282843" lon="6.8378348"><ele>3387.4</ele><time>2025-06-26T05:26:14.000Z</time></trkpt>
      <trkpt lat="45.8283660" lon="6.8381350"><ele>3397.9</ele><time>2025-06-26T05:26:55.000Z</time></trkpt>
      <trkpt lat="45.8284566" lon="6.8384316"><ele>3407.3</ele><time>2025-06-26T05:27:38.000Z</time></trkpt>
      <trkpt lat="45.8285450" lon="6.8387561"><ele>3412.6</ele><time>2025-06-26T05:28:18.000Z</time></trkpt>
      <trkpt lat="45.8286255" lon="6.8390491"><ele>3423.9</ele><time>2025-06-26T05:28:59.000Z</time></trkpt>
      <trkpt lat="45.8287332" lon="6.8393310"><ele>3429.9</ele><time>2025-06-26T05:29:37.000Z</time></trkpt>
      <trkpt lat="45.8288062" lon="6.8396425"><ele>3443.8</ele><time>2025-06-26T05:30:17.000Z</time></trkpt>
      <trkpt lat="45.8289046" lon="6.8399425"><ele>3448.0</ele><time>2025-06-26T05:30:57.000Z</time></trkpt>
      <trkpt lat="45.8289951" lon="6.8402572"><ele>3454.5</ele><time>2025-06-26T05:31:38.000Z</time></trkpt>
      <trkpt lat="45.8290788" lon="6.8405241"><ele>3461.3</ele><time>2025-06-26T05:32:20.000Z</time></trkpt>
      <trkpt lat="45.8291424" lon="6.8408213"><ele>3467.7</ele><time>2025-06-26T05:33:03.000Z</time></trkpt>
      <trkpt lat="45.8292344" lon="6.8411286"><ele>3478.0</ele><time>2025-06-26T05:33:47.000Z</time></trkpt>
      <trkpt lat="45.8293312" lon="6.8414285"><ele>3489.7</ele><time>2025-06-26T05:34:26.000Z</time></trkpt>
      <trkpt lat="45.8294264" lon="6.8417500"><ele>3502.6</ele><time>2025-06-26T05:35:08.000Z</time></trkpt>
      <trkpt lat="45.8294955" lon="6.8420331"><ele>3517.3</ele><time>2025-06-26T05:35:48.000Z</time></trkpt>
      <trkpt lat="45.8295905" lon="6.8423282"><ele>3529.9</ele><time>2025-06-26T05:36:34.000Z</time></trkpt>
      <trkpt lat="45.8296806" lon="6.8426320"><ele>3542.2</ele><time>2025-06-26T05:37:20.000Z</time></trkpt>
      <trkpt lat="45.8297565" lon="6.8429316"><ele>3554.8</ele><time>2025-06-26T05:38:06.000Z</time></trkpt>
      <trkpt lat="45.8298575" lon="6.8432101"><ele>3568.3</ele><time>2025-06-26T05:38:45.000Z</time></trkpt>
      <trkpt lat="45.8299405" lon="6.8435239"><ele>3578.8</ele><time>2025-06-26T05:39:28.000Z</time></trkpt>
      <trkpt lat="45.8300120" lon="6.8438464"><ele>3593.3</ele><time>2025-06-26T05:40:13.000Z</time></trkpt>
      <trkpt lat="45.8301197" lon="6.8441333"><ele>3608.9</ele><time>2025-06-26T05:40:55.000Z</time></trkpt>
      <trkpt lat="45.8302060" lon="6.8444398"><ele>3623.1</ele><time>2025-06-26T05:41:36.000Z</time></trkpt>
      <trkpt lat="45.8302896" lon="6.8447072"><ele>3638.7</ele><time>2025-06-26T05:42:21.000Z</time></trkpt>
      <trkpt lat="45.8303522" lon="6.8450195"><ele>3655.8</ele><time>2025-06-26T05:43:06.000Z</time></trkpt>
      <trkpt lat="45.8304574" lon="6.8453301"><ele>3675.5</ele><time>2025-06-26T05:43:49.000Z</time></trkpt>
      <trkpt lat="45.8305525" lon="6.8456029"><ele>3693.4</ele><time>2025-06-26T05:44:30.000Z</time></trkpt>
      <trkpt lat="45.8306285" lon="6.8459136"><ele>3714.1</ele><time>2025-06-26T05:45:14.000Z</time></trkpt>
      <trkpt lat="45.8307223" lon="6.8462270"><ele>3733.2</ele><time>2025-06-26T05:45:54.000Z</time></trkpt>
      <trkpt lat="45.8307831" lon="6.8465304"><ele>3752.7</ele><time>2025-06-26T05:46:39.000Z</time></trkpt>
      <trkpt lat="45.8308755" lon="6.8467989"><ele>3774.3</ele><time>2025-06-26T05:47:19.000Z</time></trkpt>
      <trkpt lat="45.8309834" lon="6.8471268"><ele>3793.2</ele><time>2025-06-26T05:48:04.000Z</time></trkpt>
      <trkpt lat="45.8310456" lon="6.8474023"><ele>3812.1</ele><time>2025-06-26T05:48:48.000Z</time></trkpt>
      <trkpt lat="45.8311436" lon="6.8477264"><ele>3837.0</ele><time>2025-06-26T05:49:35.000Z</time></trkpt>
      <trkpt lat="45.8312359" lon="6.8480055"><ele>3855.5</ele><time>2025-06-26T05:50:23.000Z</time></trkpt>
      <trkpt lat="45.8313028" lon="6.8483075"><ele>3873.1</ele><time>2025-06-26T05:51:07.000Z</time></trkpt>
      <trkpt lat="45.8314147" lon="6.8486298"><ele>3893.5</ele><time>2025-06-26T05:51:55.000Z</time></trkpt>
      <trkpt lat="45.8315003" lon="6.8489071"><ele>3916.3</ele><time>2025-06-26T05:52:38.000Z</time></trkpt>
      <trkpt lat="45.8315767" lon="6.8491975"><ele>3941.5</ele><time>2025-06-26T05:53:24.000Z</time></trkpt>
      <trkpt lat="45.8316553" lon="6.8495038"><ele>3966.6</ele><time>2025-06-26T05:54:10.000Z</time></trkpt>
      <trkpt lat="45.8317475" lon="6.8498239"><ele>3994.5</ele><time>2025-06-26T05:54:59.000Z</time></trkpt>
      <trkpt lat="45.8318496" lon="6.8501123"><ele>4021.3</ele><time>2025-06-26T05:55:45.000Z</time></trkpt>
      <trkpt lat="45.8319304" lon="6.8504030"><ele>4045.3</ele><time>2025-06-26T05:56:28.000Z</time></trkpt>
      <trkpt lat="45.8320054" lon="6.8506967"><ele>4063.7</ele><time>2025-06-26T05:57:14.000Z</time></trkpt>
      <trkpt lat="45.8321091" lon="6.8510106"><ele>4083.6</ele><time>2025-06-26T05:58:05.000Z</time></trkpt>
      <trkpt lat="45.8321685" lon="6.8513133"><ele>4107.2</ele><time>2025-06-26T05:58:52.000Z</time></trkpt>
      <trkpt lat="45.8322668" lon="6.8516024"><ele>4132.4</ele><time>2025-06-26T05:59:38.000Z</time></trkpt>
      <trkpt lat="45.8323629" lon="6.8518952"><ele>4161.6</ele><time>2025-06-26T06:00:27.000Z</time></trkpt>
      <trkpt lat="45.8324290" lon="6.8521920"><ele>4185.9</ele><time>2025-06-26T06:01:17.000Z</time></trkpt>
      <trkpt lat="45.8325365" lon="6.8525004"><ele>4210.4</ele><time>2025-06-26T06:02:04.000Z</time></trkpt>
      <trkpt lat="45.8326238" lon="6.8528195"><ele>4233.2</ele><time>2025-06-26T06:02:54.000Z</time></trkpt>
      <trkpt lat="45.8327131" lon="6.8530998"><ele>4253.9</ele><time>2025-06-26T06:03:45.000Z</time></trkpt>
      <trkpt lat="45.8327446" lon="6.8534188"><ele>4274.1</ele><time>2025-06-26T06:04:35.000Z</time></trkpt>
      <trkpt lat="45.8328094" lon="6.8537161"><ele>4292.9</ele><time>2025-06-26T06:05:28.000Z</time></trkpt>
      <trkpt lat="45.8328749" lon="6.8540353"><ele>4310.4</ele><time>2025-06-26T06:06:18.000Z</time></trkpt>
      <trkpt lat="45.8329406" lon="6.8543716"><ele>4323.6</ele><time>2025-06-26T06:07:10.000Z</time></trkpt>
      <trkpt lat="45.8329919" lon="6.8547053"><ele>4339.8</ele><time>2025-06-26T06:07:58.000Z</time></trkpt>
      <trkpt lat="45.8330416" lon="6.8549882"><ele>4354.8</ele><time>2025-06-26T06:08:50.000Z</time></trkpt>
      <trkpt lat="45.8330808" lon="6.8553223"><ele>4369.3</ele><time>2025-06-26T06:09:38.000Z</time></trkpt>
      <trkpt lat="45.8331505" lon="6.8556232"><ele>4389.3</ele><time>2025-06-26T06:10:27.000Z</time></trkpt>
      <trkpt lat="45.8332048" lon="6.8559432"><ele>4410.2</ele><time>2025-06-26T06:11:21.000Z</time></trkpt>
      <trkpt lat="45.8332772" lon="6.8562625"><ele>4439.0</ele><time>2025-06-26T06:12:16.000Z</time></trkpt>
      <trkpt lat="45.8333150" lon="6.8566071"><ele>4468.9</ele><time>2025-06-26T06:13:09.000Z</time></trkpt>
      <trkpt lat="45.8333800" lon="6.8568990"><ele>4495.4</ele><time>2025-06-26T06:14:03.000Z</time></trkpt>
      <trkpt lat="45.8334323" lon="6.8572296"><ele>4521.6</ele><time>2025-06-26T06:14:57.000Z</time></trkpt>
      <trkpt lat="45.8335038" lon="6.8575247"><ele>4538.7</ele><time>2025-06-26T06:15:50.000Z</time></trkpt>
      <trkpt lat="45.8335608" lon="6.8578581"><ele>4557.2</ele><time>2025-06-26T06:16:44.000Z</time></trkpt>
      <trkpt lat="45.8335996" lon="6.8581944"><ele>4574.0</ele><time>2025-06-26T06:17:37.000Z</time></trkpt>
      <trkpt lat="45.8336519" lon="6.8584851"><ele>4591.9</ele><time>2025-06-26T06:18:30.000Z</time></trkpt>
      <trkpt lat="45.8337048" lon="6.8588260"><ele>4607.7</ele><time>2025-06-26T06:19:25.000Z</time></trkpt>
      <trkpt lat="45.8337627" lon="6.8591342"><ele>4620.2</ele><time>2025-06-26T06:20:20.000Z</time></trkpt>
      <trkpt lat="45.8338160" lon="6.8594343"><ele>4631.4</ele><time>2025-06-26T06:21:12.000Z</time></trkpt>
      <trkpt lat="45.8338820" lon="6.8597496"><ele>4639.7</ele><time>2025-06-26T06:22:03.000Z</time></trkpt>
      <trkpt lat="45.8339342" lon="6.8600849"><ele>4645.3</ele><time>2025-06-26T06:22:57.000Z</time></trkpt>
      <trkpt lat="45.8339881" lon="6.8603915"><ele>4652.5</ele><time>2025-06-26T06:23:50.000Z</time></trkpt>
      <trkpt lat="45.8339002" lon="6.8606804"><ele>4665.3</ele><time>2025-06-26T06:24:46.000Z</time></trkpt>
      <trkpt lat="45.8338087" lon="6.8609432"><ele>4683.4</ele><time>2025-06-26T06:25:43.000Z</time></trkpt>
      <trkpt lat="45.8336962" lon="6.8612367"><ele>4699.5</ele><time>2025-06-26T06:26:38.000Z</time></trkpt>
      <trkpt lat="45.8336148" lon="6.8615028"><ele>4715.5</ele><time>2025-06-26T06:27:31.000Z</time></trkpt>
      <trkpt lat="45.8334998" lon="6.8618027"><ele>4728.9</ele><time>2025-06-26T06:28:24.000Z</time></trkpt>
      <trkpt lat="45.8333915" lon="6.8620807"><ele>4743.9</ele><time>2025-06-26T06:29:17.000Z</time></trkpt>
      <trkpt lat="45.8333057" lon="6.8623440"><ele>4753.7</ele><time>2025-06-26T06:30:12.000Z</time></trkpt>
      <trkpt lat="45.8332053" lon="6.8626440"><ele>4764.0</ele><time>2025-06-26T06:31:09.000Z</time></trkpt>
      <trkpt lat="45.8330920" lon="6.8628957"><ele>4771.7</ele><time>2025-06-26T06:32:07.000Z</time></trkpt>
      <trkpt lat="45.8329970" lon="6.8631963"><ele>4781.4</ele><time>2025-06-26T06:33:05.000Z</time></trkpt>
      <trkpt lat="45.8329068" lon="6.8634468"><ele>4786.6</ele><time>2025-06-26T06:33:58.000Z</time></trkpt>
      <trkpt lat="45.8327931" lon="6.8637332"><ele>4787.3</ele><time>2025-06-26T06:34:54.000Z</time></trkpt>
      <trkpt lat="45.8326860" lon="6.8640262"><ele>4789.1</ele><time>2025-06-26T06:35:52.000Z</time></trkpt>
      <trkpt lat="45.8326096" lon="6.8643028"><ele>4789.1</ele><time>2025-06-26T06:36:48.000Z</time></trkpt>
  </trkseg></trk>
</gpx>
