<?xml version="1.0" encoding="UTF-8"?>
<gpx version="1.1" creator="MountainMadness seed" xmlns="http://www.topografix.com/GPX/1/1">
  <metadata><name>Mont Blanc — Goûter route</name></metadata>
  <trk>
    <name>Mont Blanc — Goûter route</name>
    <trkseg>
      <trkpt lat="45.8536084" lon="6.7861033"><ele>1940.9</ele><time>2025-07-14T02:30:15.000Z</time></trkpt>
      <trkpt lat="45.8535603" lon="6.7863378"><ele>1945.8</ele><time>2025-07-14T02:30:29.000Z</time></trkpt>
      <trkpt lat="45.8535317" lon="6.7865557"><ele>1952.9</ele><time>2025-07-14T02:30:46.000Z</time></trkpt>
      <trkpt lat="45.8535337" lon="6.7867760"><ele>1957.3</ele><time>2025-07-14T02:31:02.000Z</time></trkpt>
      <trkpt lat="45.8534999" lon="6.7870008"><ele>1962.7</ele><time>2025-07-14T02:31:16.000Z</time></trkpt>
      <trkpt lat="45.8534947" lon="6.7872652"><ele>1967.1</ele><time>2025-07-14T02:31:35.000Z</time></trkpt>
      <trkpt lat="45.8534471" lon="6.7874890"><ele>1974.9</ele><time>2025-07-14T02:31:53.000Z</time></trkpt>
      <trkpt lat="45.8534249" lon="6.7877228"><ele>1981.3</ele><time>2025-07-14T02:32:07.000Z</time></trkpt>
      <trkpt lat="45.8533865" lon="6.7879203"><ele>1985.1</ele><time>2025-07-14T02:32:21.000Z</time></trkpt>
      <trkpt lat="45.8533689" lon="6.7881532"><ele>1992.4</ele><time>2025-07-14T02:32:41.000Z</time></trkpt>
      <trkpt lat="45.8533369" lon="6.7883970"><ele>1999.2</ele><time>2025-07-14T02:32:56.000Z</time></trkpt>
      <trkpt lat="45.8533309" lon="6.7885903"><ele>2003.5</ele><time>2025-07-14T02:33:14.000Z</time></trkpt>
      <trkpt lat="45.8533077" lon="6.7888389"><ele>2012.4</ele><time>2025-07-14T02:33:29.000Z</time></trkpt>
      <trkpt lat="45.8532901" lon="6.7890734"><ele>2018.8</ele><time>2025-07-14T02:33:47.000Z</time></trkpt>
      <trkpt lat="45.8532654" lon="6.7893055"><ele>2023.5</ele><time>2025-07-14T02:34:05.000Z</time></trkpt>
      <trkpt lat="45.8532305" lon="6.7895215"><ele>2028.8</ele><time>2025-07-14T02:34:21.000Z</time></trkpt>
      <trkpt lat="45.8532215" lon="6.7897649"><ele>2033.5</ele><time>2025-07-14T02:34:35.000Z</time></trkpt>
      <trkpt lat="45.8531837" lon="6.7900019"><ele>2039.9</ele><time>2025-07-14T02:34:50.000Z</time></trkpt>
      <trkpt lat="45.8531503" lon="6.7902357"><ele>2041.2</ele><time>2025-07-14T02:35:07.000Z</time></trkpt>
      <trkpt lat="45.8531339" lon="6.7904399"><ele>2049.1</ele><time>2025-07-14T02:35:22.000Z</time></trkpt>
      <trkpt lat="45.8531040" lon="6.7906809"><ele>2055.3</ele><time>2025-07-14T02:35:38.000Z</time></trkpt>
      <trkpt lat="45.8531008" lon="6.7909122"><ele>2058.9</ele><time>2025-07-14T02:35:52.000Z</time></trkpt>
      <trkpt lat="45.8530578" lon="6.7911449"><ele>2065.2</ele><time>2025-07-14T02:36:12.000Z</time></trkpt>
      <trkpt lat="45.8530303" lon="6.7913580"><ele>2064.3</ele><time>2025-07-14T02:36:29.000Z</time></trkpt>
      <trkpt lat="45.8530027" lon="6.7915723"><ele>2071.3</ele><time>2025-07-14T02:36:46.000Z</time></trkpt>
      <trkpt lat="45.8529931" lon="6.7918530"><ele>2083.0</ele><time>2025-07-14T02:37:02.000Z</time></trkpt>
      <trkpt lat="45.8529592" lon="6.7920504"><ele>2094.5</ele><time>2025-07-14T02:37:16.000Z</time></trkpt>
      <trkpt lat="45.8529220" lon="6.7922854"><ele>2109.3</ele><time>2025-07-14T02:37:30.000Z</time></trkpt>
      <trkpt lat="45.8529200" lon="6.7924910"><ele>2125.0</ele><time>2025-07-14T02:37:45.000Z</time></trkpt>
      <trkpt lat="45.8528796" lon="6.7927486"><ele>2138.9</ele><time>2025-07-14T02:38:03.000Z</time></trkpt>
      <trkpt lat="45.8528499" lon="6.7929667"><ele>2151.1</ele><time>2025-07-14T02:38:23.000Z</time></trkpt>
      <trkpt lat="45.8528449" lon="6.7931714"><ele>2157.8</ele><time>2025-07-14T02:38:38.000Z</time></trkpt>
      <trkpt lat="45.8528036" lon="6.7934513"><ele>2169.1</ele><time>2025-07-14T02:38:57.000Z</time></trkpt>
      <trkpt lat="45.8528016" lon="6.7936527"><ele>2181.1</ele><time>2025-07-14T02:39:13.000Z</time></trkpt>
      <trkpt lat="45.8527872" lon="6.7939158"><ele>2189.3</ele><time>2025-07-14T02:39:28.000Z</time></trkpt>
      <trkpt lat="45.8527257" lon="6.7941315"><ele>2199.0</ele><time>2025-07-14T02:39:44.000Z</time></trkpt>
      <trkpt lat="45.8527148" lon="6.7943491"><ele>2208.3</ele><time>2025-07-14T02:40:03.000Z</time></trkpt>
      <trkpt lat="45.8526982" lon="6.7945535"><ele>2216.8</ele><time>2025-07-14T02:40:20.000Z</time></trkpt>
      <trkpt lat="45.8526817" lon="6.7948007"><ele>2227.5</ele><time>2025-07-14T02:40:36.000Z</time></trkpt>
      <trkpt lat="45.8526372" lon="6.7950422"><ele>2237.0</ele><time>2025-07-14T02:40:52.000Z</time></trkpt>
      <trkpt lat="45.8526218" lon="6.7952559"><ele>2253.3</ele><time>2025-07-14T02:41:08.000Z</time></trkpt>
      <trkpt lat="45.8526157" lon="6.7955203"><ele>2258.6</ele><time>2025-07-14T02:41:25.000Z</time></trkpt>
      <trkpt lat="45.8525690" lon="6.7957465"><ele>2272.5</ele><time>2025-07-14T02:41:41.000Z</time></trkpt>
      <trkpt lat="45.8525669" lon="6.7959684"><ele>2278.9</ele><time>2025-07-14T02:41:57.000Z</time></trkpt>
      <trkpt lat="45.8525438" lon="6.7961549"><ele>2284.9</ele><time>2025-07-14T02:42:12.000Z</time></trkpt>
      <trkpt lat="45.8524937" lon="6.7964063"><ele>2292.8</ele><time>2025-07-14T02:42:28.000Z</time></trkpt>
      <trkpt lat="45.8524613" lon="6.7966125"><ele>2297.4</ele><time>2025-07-14T02:42:46.000Z</time></trkpt>
      <trkpt lat="45.8524541" lon="6.7968549"><ele>2309.5</ele><time>2025-07-14T02:43:02.000Z</time></trkpt>
      <trkpt lat="45.8524200" lon="6.7970801"><ele>2316.9</ele><time>2025-07-14T02:43:17.000Z</time></trkpt>
      <trkpt lat="45.8523931" lon="6.7973008"><ele>2322.6</ele><time>2025-07-14T02:43:36.000Z</time></trkpt>
      <trkpt lat="45.8523654" lon="6.7975389"><ele>2329.2</ele><time>2025-07-14T02:43:53.000Z</time></trkpt>
      <trkpt lat="45.8523500" lon="6.7977536"><ele>2334.5</ele><time>2025-07-14T02:44:09.000Z</time></trkpt>
      <trkpt lat="45.8523147" lon="6.7980179"><ele>2341.9</ele><time>2025-07-14T02:44:23.000Z</time></trkpt>
      <trkpt lat="45.8523074" lon="6.7982463"><ele>2353.6</ele><time>2025-07-14T02:44:39.000Z</time></trkpt>
      <trkpt lat="45.8522994" lon="6.7984802"><ele>2356.7</ele><time>2025-07-14T02:44:55.000Z</time></trkpt>
      <trkpt lat="45.8522680" lon="6.7986796"><ele>2369.4</ele><time>2025-07-14T02:45:13.000Z</time></trkpt>
      <trkpt lat="45.8522151" lon="6.7989513"><ele>2378.9</ele><time>2025-07-14T02:45:31.000Z</time></trkpt>
      <trkpt lat="45.8522141" lon="6.7991661"><ele>2387.9</ele><time>2025-07-14T02:45:50.000Z</time></trkpt>
      <trkpt lat="45.8521755" lon="6.7993975"><ele>2400.6</ele><time>2025-07-14T02:46:08.000Z</time></trkpt>
      <trkpt lat="45.8521427" lon="6.7996413"><ele>2413.5</ele><time>2025-07-14T02:46:25.000Z</time></trkpt>
      <trkpt lat="45.8521293" lon="6.7998590"><ele>2422.9</ele><time>2025-07-14T02:46:43.000Z</time></trkpt>
      <trkpt lat="45.8521007" lon="6.8000969"><ele>2439.7</ele><time>2025-07-14T02:47:00.000Z</time></trkpt>
      <trkpt lat="45.8520808" lon="6.8002748"><ele>2452.4</ele><time>2025-07-14T02:47:19.000Z</time></trkpt>
      <trkpt lat="45.8520564" lon="6.8005076"><ele>2458.3</ele><time>2025-07-14T02:47:34.000Z</time></trkpt>
      <trkpt lat="45.8520245" lon="6.8007557"><ele>2467.6</ele><time>2025-07-14T02:47:52.000Z</time></trkpt>
      <trkpt lat="45.8520015" lon="6.8009661"><ele>2474.7</ele><time>2025-07-14T02:48:08.000Z</time></trkpt>
      <trkpt lat="45.8519775" lon="6.8012389"><ele>2483.5</ele><time>2025-07-14T02:48:24.000Z</time></trkpt>
      <trkpt lat="45.8519463" lon="6.8014348"><ele>2495.8</ele><time>2025-07-14T02:48:44.000Z</time></trkpt>
      <trkpt lat="45.8519423" lon="6.8016894"><ele>2503.6</ele><time>2025-07-14T02:49:04.000Z</time></trkpt>
      <trkpt lat="45.8519251" lon="6.8019192"><ele>2512.1</ele><time>2025-07-14T02:49:20.000Z</time></trkpt>
      <trkpt lat="45.8519048" lon="6.8021337"><ele>2518.2</ele><time>2025-07-14T02:49:39.000Z</time></trkpt>
      <trkpt lat="45.8518510" lon="6.8023466"><ele>2528.9</ele><time>2025-07-14T02:49:59.000Z</time></trkpt>
      <trkpt lat="45.8518388" lon="6.8025767"><ele>2539.4</ele><time>2025-07-14T02:50:19.000Z</time></trkpt>
      <trkpt lat="45.8518160" lon="6.8027955"><ele>2549.4</ele><time>2025-07-14T02:50:40.000Z</time></trkpt>
      <trkpt lat="45.8517910" lon="6.8030356"><ele>2559.7</ele><time>2025-07-14T02:50:59.000Z</time></trkpt>
      <trkpt lat="45.8517615" lon="6.8032947"><ele>2571.5</ele><time>2025-07-14T02:51:17.000Z</time></trkpt>
      <trkpt lat="45.8517330" lon="6.8035209"><ele>2580.6</ele><time>2025-07-14T02:51:35.000Z</time></trkpt>
      <trkpt lat="45.8517071" lon="6.8037259"><ele>2590.1</ele><time>2025-07-14T02:51:55.000Z</time></trkpt>
      <trkpt lat="45.8517041" lon="6.8039474"><ele>2596.6</ele><time>2025-07-14T02:52:12.000Z</time></trkpt>
      <trkpt lat="45.8516882" lon="6.8042128"><ele>2606.5</ele><time>2025-07-14T02:52:30.000Z</time></trkpt>
      <trkpt lat="45.8516527" lon="6.8044538"><ele>2615.0</ele><time>2025-07-14T02:52:48.000Z</time></trkpt>
      <trkpt lat="45.8516324" lon="6.8046778"><ele>2625.2</ele><time>2025-07-14T02:53:06.000Z</time></trkpt>
      <trkpt lat="45.8516127" lon="6.8048965"><ele>2638.5</ele><time>2025-07-14T02:53:25.000Z</time></trkpt>
      <trkpt lat="45.8515751" lon="6.8051350"><ele>2647.2</ele><time>2025-07-14T02:53:43.000Z</time></trkpt>
      <trkpt lat="45.8515480" lon="6.8053449"><ele>2655.6</ele><time>2025-07-14T02:54:06.000Z</time></trkpt>
      <trkpt lat="45.8515259" lon="6.8055710"><ele>2662.0</ele><time>2025-07-14T02:54:27.000Z</time></trkpt>
      <trkpt lat="45.8515153" lon="6.8057804"><ele>2668.5</ele><time>2025-07-14T02:54:48.000Z</time></trkpt>
      <trkpt lat="45.8514494" lon="6.8060400"><ele>2674.1</ele><time>2025-07-14T02:55:10.000Z</time></trkpt>
      <trkpt lat="45.8514320" lon="6.8062626"><ele>2680.9</ele><time>2025-07-14T02:55:32.000Z</time></trkpt>
      <trkpt lat="45.8513771" lon="6.8064981"><ele>2687.4</ele><time>2025-07-14T02:55:54.000Z</time></trkpt>
      <trkpt lat="45.8513398" lon="6.8066897"><ele>2698.2</ele><time>2025-07-14T02:56:17.000Z</time></trkpt>
      <trkpt lat="45.8513088" lon="6.8069331"><ele>2701.9</ele><time>2025-07-14T02:56:35.000Z</time></trkpt>
      <trkpt lat="45.8512586" lon="6.8071240"><ele>2708.5</ele><time>2025-07-14T02:56:56.000Z</time></trkpt>
      <trkpt lat="45.8512142" lon="6.8073739"><ele>2719.5</ele><time>2025-07-14T02:57:16.000Z</time></trkpt>
      <trkpt lat="45.8511792" lon="6.8075809"><ele>2729.6</ele><time>2025-07-14T02:57:38.000Z</time></trkpt>
      <trkpt lat="45.8511507" lon="6.8078262"><ele>2737.3</ele><time>2025-07-14T02:57:58.000Z</time></trkpt>
      <trkpt lat="45.8511126" lon="6.8080430"><ele>2741.5</ele><time>2025-07-14T02:58:20.000Z</time></trkpt>
      <trkpt lat="45.8510708" lon="6.8082754"><ele>2754.5</ele><time>2025-07-14T02:58:40.000Z</time></trkpt>
      <trkpt lat="45.8510096" lon="6.8085076"><ele>2760.0</ele><time>2025-07-14T02:59:00.000Z</time></trkpt>
      <trkpt lat="45.8509770" lon="6.8086945"><ele>2769.5</ele><time>2025-07-14T02:59:24.000Z</time></trkpt>
      <trkpt lat="45.8509665" lon="6.8089581"><ele>2778.6</ele><time>2025-07-14T02:59:44.000Z</time></trkpt>
      <trkpt lat="45.8509045" lon="6.8091872"><ele>2785.7</ele><time>2025-07-14T03:00:05.000Z</time></trkpt>
      <trkpt lat="45.8508814" lon="6.8093859"><ele>2789.2</ele><time>2025-07-14T03:00:29.000Z</time></trkpt>
      <trkpt lat="45.8508251" lon="6.8095825"><ele>2800.3</ele><time>2025-07-14T03:00:48.000Z</time></trkpt>
      <trkpt lat="45.8508047" lon="6.8098466"><ele>2803.6</ele><time>2025-07-14T03:01:10.000Z</time></trkpt>
      <trkpt lat="45.8507637" lon="6.8100861"><ele>2811.1</ele><time>2025-07-14T03:01:32.000Z</time></trkpt>
      <trkpt lat="45.8506941" lon="6.8103096"><ele>2813.0</ele><time>2025-07-14T03:01:56.000Z</time></trkpt>
      <trkpt lat="45.8506849" lon="6.8105310"><ele>2817.6</ele><time>2025-07-14T03:02:21.000Z</time></trkpt>
      <trkpt lat="45.8506181" lon="6.8107591"><ele>2817.9</ele><time>2025-07-14T03:02:45.000Z</time></trkpt>
      <trkpt lat="45.8506096" lon="6.8109575"><ele>2825.7</ele><time>2025-07-14T03:03:07.000Z</time></trkpt>
      <trkpt lat="45.8505496" lon="6.8112037"><ele>2826.4</ele><time>2025-07-14T03:03:26.000Z</time></trkpt>
      <trkpt lat="45.8505241" lon="6.8114353"><ele>2827.9</ele><time>2025-07-14T03:03:45.000Z</time></trkpt>
      <trkpt lat="45.8504769" lon="6.8116393"><ele>2830.7</ele><time>2025-07-14T03:04:09.000Z</time></trkpt>
      <trkpt lat="45.8504425" lon="6.8118650"><ele>2836.2</ele><time>2025-07-14T03:04:28.000Z</time></trkpt>
      <trkpt lat="45.8503903" lon="6.8120804"><ele>2843.5</ele><time>2025-07-14T03:04:51.000Z</time></trkpt>
      <trkpt lat="45.8503502" lon="6.8122803"><ele>2846.9</ele><time>2025-07-14T03:05:15.000Z</time></trkpt>
      <trkpt lat="45.8503360" lon="6.8125090"><ele>2850.8</ele><time>2025-07-14T03:05:35.000Z</time></trkpt>
      <trkpt lat="45.8502887" lon="6.8127358"><ele>2855.0</ele><time>2025-07-14T03:05:56.000Z</time></trkpt>
      <trkpt lat="45.8502428" lon="6.8129812"><ele>2862.5</ele><time>2025-07-14T03:06:20.000Z</time></trkpt>
      <trkpt lat="45.8501927" lon="6.8131760"><ele>2870.4</ele><time>2025-07-14T03:06:40.000Z</time></trkpt>
      <trkpt lat="45.8501616" lon="6.8134166"><ele>2871.2</ele><time>2025-07-14T03:07:00.000Z</time></trkpt>
      <trkpt lat="45.8501263" lon="6.8136385"><ele>2876.7</ele><time>2025-07-14T03:07:23.000Z</time></trkpt>
      <trkpt lat="45.8500803" lon="6.8138512"><ele>2882.3</ele><time>2025-07-14T03:07:46.000Z</time></trkpt>
      <trkpt lat="45.8500447" lon="6.8141045"><ele>2888.9</ele><time>2025-07-14T03:08:06.000Z</time></trkpt>
      <trkpt lat="45.8500145" lon="6.8143121"><ele>2896.5</ele><time>2025-07-14T03:08:32.000Z</time></trkpt>
      <trkpt lat="45.8499610" lon="6.8145494"><ele>2905.2</ele><time>2025-07-14T03:08:53.000Z</time></trkpt>
      <trkpt lat="45.8499420" lon="6.8147471"><ele>2910.2</ele><time>2025-07-14T03:09:15.000Z</time></trkpt>
      <trkpt lat="45.8499047" lon="6.8150213"><ele>2917.6</ele><time>2025-07-14T03:09:40.000Z</time></trkpt>
      <trkpt lat="45.8498553" lon="6.8152118"><ele>2925.0</ele><time>2025-07-14T03:10:01.000Z</time></trkpt>
      <trkpt lat="45.8497992" lon="6.8154581"><ele>2932.3</ele><time>2025-07-14T03:10:22.000Z</time></trkpt>
      <trkpt lat="45.8497758" lon="6.8156535"><ele>2934.2</ele><time>2025-07-14T03:10:44.000Z</time></trkpt>
      <trkpt lat="45.8497128" lon="6.8158677"><ele>2942.6</ele><time>2025-07-14T03:11:08.000Z</time></trkpt>
      <trkpt lat="45.8496826" lon="6.8161173"><ele>2944.2</ele><time>2025-07-14T03:11:29.000Z</time></trkpt>
      <trkpt lat="45.8496502" lon="6.8163456"><ele>2949.3</ele><time>2025-07-14T03:11:54.000Z</time></trkpt>
      <trkpt lat="45.8495917" lon="6.8165369"><ele>2954.3</ele><time>2025-07-14T03:12:17.000Z</time></trkpt>
      <trkpt lat="45.8495540" lon="6.8167709"><ele>2954.4</ele><time>2025-07-14T03:12:42.000Z</time></trkpt>
      <trkpt lat="45.8495122" lon="6.8170387"><ele>2959.2</ele><time>2025-07-14T03:13:07.000Z</time></trkpt>
      <trkpt lat="45.8495089" lon="6.8172287"><ele>2964.9</ele><time>2025-07-14T03:13:28.000Z</time></trkpt>
      <trkpt lat="45.8494316" lon="6.8174419"><ele>2968.1</ele><time>2025-07-14T03:13:52.000Z</time></trkpt>
      <trkpt lat="45.8494249" lon="6.8176604"><ele>2974.8</ele><time>2025-07-14T03:14:16.000Z</time></trkpt>
      <trkpt lat="45.8493832" lon="6.8178975"><ele>2975.0</ele><time>2025-07-14T03:14:39.000Z</time></trkpt>
      <trkpt lat="45.8493443" lon="6.8181124"><ele>2977.7</ele><time>2025-07-14T03:15:02.000Z</time></trkpt>
      <trkpt lat="45.8493029" lon="6.8183655"><ele>2984.3</ele><time>2025-07-14T03:15:23.000Z</time></trkpt>
      <trkpt lat="45.8492581" lon="6.8186011"><ele>2986.8</ele><time>2025-07-14T03:15:47.000Z</time></trkpt>
      <trkpt lat="45.8491973" lon="6.8188005"><ele>2993.7</ele><time>2025-07-14T03:16:11.000Z</time></trkpt>
      <trkpt lat="45.8491920" lon="6.8190422"><ele>2996.4</ele><time>2025-07-14T03:16:36.000Z</time></trkpt>
      <trkpt lat="45.8491361" lon="6.8192612"><ele>3000.8</ele><time>2025-07-14T03:16:58.000Z</time></trkpt>
      <trkpt lat="45.8491021" lon="6.8194505"><ele>3007.2</ele><time>2025-07-14T03:17:21.000Z</time></trkpt>
      <trkpt lat="45.8490584" lon="6.8196956"><ele>3013.9</ele><time>2025-07-14T03:17:43.000Z</time></trkpt>
      <trkpt lat="45.8490090" lon="6.8199121"><ele>3021.5</ele><time>2025-07-14T03:18:07.000Z</time></trkpt>
      <trkpt lat="45.8489793" lon="6.8201242"><ele>3022.1</ele><time>2025-07-14T03:18:33.000Z</time></trkpt>
      <trkpt lat="45.8489350" lon="6.8203928"><ele>3030.4</ele><time>2025-07-14T03:18:55.000Z</time></trkpt>
      <trkpt lat="45.8489113" lon="6.8205929"><ele>3034.6</ele><time>2025-07-14T03:19:21.000Z</time></trkpt>
      <trkpt lat="45.8489563" lon="6.8208336"><ele>3043.8</ele><time>2025-07-14T03:19:44.000Z</time></trkpt>
      <trkpt lat="45.8489617" lon="6.8210445"><ele>3049.3</ele><time>2025-07-14T03:20:09.000Z</time></trkpt>
      <trkpt lat="45.8490228" lon="6.8212585"><ele>3058.6</ele><time>2025-07-14T03:20:36.000Z</time></trkpt>
      <trkpt lat="45.8490565" lon="6.8214891"><ele>3068.2</ele><time>2025-07-14T03:21:00.000Z</time></trkpt>
      <trkpt lat="45.8490751" lon="6.8217246"><ele>3079.1</ele><time>2025-07-14T03:21:26.000Z</time></trkpt>
      <trkpt lat="45.8491453" lon="6.8219287"><ele>3088.7</ele><time>2025-07-14T03:21:50.000Z</time></trkpt>
      <trkpt lat="45.8491545" lon="6.8221711"><ele>3100.0</ele><time>2025-07-14T03:22:14.000Z</time></trkpt>
      <trkpt lat="45.8491990" lon="6.8223911"><ele>3114.6</ele><time>2025-07-14T03:22:39.000Z</time></trkpt>
      <trkpt lat="45.8492231" lon="6.8226266"><ele>3122.7</ele><time>2025-07-14T03:23:02.000Z</time></trkpt>
      <trkpt lat="45.8492778" lon="6.8228297"><ele>3134.3</ele><time>2025-07-14T03:23:25.000Z</time></trkpt>
      <trkpt lat="45.8493339" lon="6.8230497"><ele>3151.9</ele><time>2025-07-14T03:23:51.000Z</time></trkpt>
      <trkpt lat="45.8493434" lon="6.8232726"><ele>3166.2</ele><time>2025-07-14T03:24:19.000Z</time></trkpt>
      <trkpt lat="45.8494058" lon="6.8234965"><ele>3189.2</ele><time>2025-07-14T03:24:46.000Z</time></trkpt>
      <trkpt lat="45.8494305" lon="6.8237367"><ele>3213.7</ele><time>2025-07-14T03:25:14.000Z</time></trkpt>
      <trkpt lat="45.8494819" lon="6.8239680"><ele>3237.2</ele><time>2025-07-14T03:25:41.000Z</time></trkpt>
      <trkpt lat="45.8495256" lon="6.8241770"><ele>3266.2</ele><time>2025-07-14T03:26:10.000Z</time></trkpt>
      <trkpt lat="45.8495503" lon="6.8244159"><ele>3292.2</ele><time>2025-07-14T03:26:36.000Z</time></trkpt>
      <trkpt lat="45.8495923" lon="6.8246543"><ele>3307.0</ele><time>2025-07-14T03:27:05.000Z</time></trkpt>
      <trkpt lat="45.8496143" lon="6.8248675"><ele>3329.7</ele><time>2025-07-14T03:27:31.000Z</time></trkpt>
      <trkpt lat="45.8496457" lon="6.8250871"><ele>3344.5</ele><time>2025-07-14T03:27:56.000Z</time></trkpt>
      <trkpt lat="45.8497044" lon="6.8252849"><ele>3358.7</ele><time>2025-07-14T03:28:23.000Z</time></trkpt>
      <trkpt lat="45.8497622" lon="6.8255168"><ele>3368.3</ele><time>2025-07-14T03:28:49.000Z</time></trkpt>
      <trkpt lat="45.8497905" lon="6.8257522"><ele>3389.7</ele><time>2025-07-14T03:29:17.000Z</time></trkpt>
      <trkpt lat="45.8498158" lon="6.8259564"><ele>3415.4</ele><time>2025-07-14T03:29:43.000Z</time></trkpt>
      <trkpt lat="45.8498677" lon="6.8262088"><ele>3444.3</ele><time>2025-07-14T03:30:14.000Z</time></trkpt>
      <trkpt lat="45.8499238" lon="6.8264156"><ele>3466.4</ele><time>2025-07-14T03:30:44.000Z</time></trkpt>
      <trkpt lat="45.8499484" lon="6.8266212"><ele>3486.7</ele><time>2025-07-14T03:31:12.000Z</time></trkpt>
      <trkpt lat="45.8499801" lon="6.8268924"><ele>3496.5</ele><time>2025-07-14T03:31:45.000Z</time></trkpt>
      <trkpt lat="45.8500540" lon="6.8270654"><ele>3513.6</ele><time>2025-07-14T03:32:17.000Z</time></trkpt>
      <trkpt lat="45.8500993" lon="6.8273058"><ele>3532.5</ele><time>2025-07-14T03:32:47.000Z</time></trkpt>
      <trkpt lat="45.8501137" lon="6.8275154"><ele>3562.5</ele><time>2025-07-14T03:33:20.000Z</time></trkpt>
      <trkpt lat="45.8501603" lon="6.8277354"><ele>3587.1</ele><time>2025-07-14T03:33:52.000Z</time></trkpt>
      <trkpt lat="45.8502192" lon="6.8279957"><ele>3596.4</ele><time>2025-07-14T03:34:24.000Z</time></trkpt>
      <trkpt lat="45.8502709" lon="6.8281965"><ele>3610.6</ele><time>2025-07-14T03:34:53.000Z</time></trkpt>
      <trkpt lat="45.8503098" lon="6.8284345"><ele>3651.6</ele><time>2025-07-14T03:35:23.000Z</time></trkpt>
      <trkpt lat="45.8503367" lon="6.8286425"><ele>3680.8</ele><time>2025-07-14T03:35:57.000Z</time></trkpt>
      <trkpt lat="45.8503711" lon="6.8288863"><ele>3698.3</ele><time>2025-07-14T03:36:31.000Z</time></trkpt>
      <trkpt lat="45.8504458" lon="6.8291243"><ele>3709.7</ele><time>2025-07-14T03:37:02.000Z</time></trkpt>
      <trkpt lat="45.8504814" lon="6.8293347"><ele>3731.5</ele><time>2025-07-14T03:37:35.000Z</time></trkpt>
      <trkpt lat="45.8505332" lon="6.8295521"><ele>3744.3</ele><time>2025-07-14T03:38:11.000Z</time></trkpt>
      <trkpt lat="45.8505584" lon="6.8297792"><ele>3755.6</ele><time>2025-07-14T03:38:44.000Z</time></trkpt>
      <trkpt lat="45.8506101" lon="6.8299898"><ele>3761.7</ele><time>2025-07-14T03:39:16.000Z</time></trkpt>
      <trkpt lat="45.8505053" lon="6.8302213"><ele>3773.3</ele><time>2025-07-14T03:39:46.000Z</time></trkpt>
      <trkpt lat="45.8504169" lon="6.8304109"><ele>3779.1</ele><time>2025-07-14T03:40:19.000Z</time></trkpt>
      <trkpt lat="45.8503292" lon="6.8305664"><ele>3782.7</ele><time>2025-07-14T03:40:50.000Z</time></trkpt>
      <trkpt lat="45.8502654" lon="6.8307785"><ele>3793.9</ele><time>2025-07-14T03:41:22.000Z</time></trkpt>
      <trkpt lat="45.8501826" lon="6.8309902"><ele>3799.6</ele><time>2025-07-14T03:41:52.000Z</time></trkpt>
      <trkpt lat="45.8500909" lon="6.8312006"><ele>3807.6</ele><time>2025-07-14T03:42:23.000Z</time></trkpt>
      <trkpt lat="45.8499873" lon="6.8313856"><ele>3814.3</ele><time>2025-07-14T03:42:57.000Z</time></trkpt>
      <trkpt lat="45.8499040" lon="6.8315550"><ele>3815.9</ele><time>2025-07-14T03:43:28.000Z</time></trkpt>
      <trkpt lat="45.8498062" lon="6.8317555"><ele>3821.4</ele><time>2025-07-14T03:44:02.000Z</time></trkpt>
      <trkpt lat="45.8497460" lon="6.8319823"><ele>3822.8</ele><time>2025-07-14T03:44:33.000Z</time></trkpt>
      <trkpt lat="45.8496237" lon="6.8321524"><ele>3829.5</ele><time>2025-07-14T03:45:05.000Z</time></trkpt>
      <trkpt lat="45.8495697" lon="6.8323435"><ele>3830.3</ele><time>2025-07-14T03:45:40.000Z</time></trkpt>
      <trkpt lat="45.8494520" lon="6.8325739"><ele>3832.1</ele><time>2025-07-14T03:46:11.000Z</time></trkpt>
      <trkpt lat="45.8493696" lon="6.8327760"><ele>3831.3</ele><time>2025-07-14T03:46:44.000Z</time></trkpt>
      <trkpt lat="45.8492971" lon="6.8329753"><ele>3828.7</ele><time>2025-07-14T03:47:20.000Z</time></trkpt>
      <trkpt lat="45.8491909" lon="6.8331260"><ele>3829.7</ele><time>2025-07-14T03:47:53.000Z</time></trkpt>
      <trkpt lat="45.8491076" lon="6.8333335"><ele>3833.6</ele><time>2025-07-14T03:48:27.000Z</time></trkpt>
      <trkpt lat="45.8490219" lon="6.8335564"><ele>3832.2</ele><time>2025-07-14T03:49:00.000Z</time></trkpt>
      <trkpt lat="45.8489365" lon="6.8337348"><ele>3836.4</ele><time>2025-07-14T03:49:34.000Z</time></trkpt>
      <trkpt lat="45.8488534" lon="6.8339437"><ele>3837.7</ele><time>2025-07-14T03:50:08.000Z</time></trkpt>
      <trkpt lat="45.8487893" lon="6.8341336"><ele>3841.3</ele><time>2025-07-14T03:50:39.000Z</time></trkpt>
      <trkpt lat="45.8486739" lon="6.8343314"><ele>3851.8</ele><time>2025-07-14T03:51:11.000Z</time></trkpt>
      <trkpt lat="45.8486119" lon="6.8345301"><ele>3853.8</ele><time>2025-07-14T03:51:45.000Z</time></trkpt>
      <trkpt lat="45.8485006" lon="6.8347099"><ele>3865.9</ele><time>2025-07-14T03:52:20.000Z</time></trkpt>
      <trkpt lat="45.8484329" lon="6.8349247"><ele>3872.7</ele><time>2025-07-14T03:52:52.000Z</time></trkpt>
      <trkpt lat="45.8483357" lon="6.8351254"><ele>3878.7</ele><time>2025-07-14T03:53:23.000Z</time></trkpt>
      <trkpt lat="45.8482561" lon="6.8353361"><ele>3883.8</ele><time>2025-07-14T03:53:57.000Z</time></trkpt>
      <trkpt lat="45.8481443" lon="6.8355310"><ele>3890.8</ele><time>2025-07-14T03:54:31.000Z</time></trkpt>
      <trkpt lat="45.8480904" lon="6.8357002"><ele>3901.3</ele><time>2025-07-14T03:55:04.000Z</time></trkpt>
      <trkpt lat="45.8479912" lon="6.8359343"><ele>3907.2</ele><time>2025-07-14T03:55:41.000Z</time></trkpt>
      <trkpt lat="45.8479193" lon="6.8360797"><ele>3916.9</ele><time>2025-07-14T03:56:14.000Z</time></trkpt>
      <trkpt lat="45.8478292" lon="6.8363072"><ele>3922.4</ele><time>2025-07-14T03:56:49.000Z</time></trkpt>
      <trkpt lat="45.8477240" lon="6.8364734"><ele>3928.4</ele><time>2025-07-14T03:57:26.000Z</time></trkpt>
      <trkpt lat="45.8476608" lon="6.8366989"><ele>3938.1</ele><time>2025-07-14T03:58:04.000Z</time></trkpt>
      <trkpt lat="45.8475471" lon="6.8368664"><ele>3948.5</ele><time>2025-07-14T03:58:42.000Z</time></trkpt>
      <trkpt lat="45.8474587" lon="6.8371060"><ele>3959.2</ele><time>2025-07-14T03:59:16.000Z</time></trkpt>
      <trkpt lat="45.8473741" lon="6.8372647"><ele>3966.0</ele><time>2025-07-14T03:59:50.000Z</time></trkpt>
      <trkpt lat="45.8473016" lon="6.8374953"><ele>3978.2</ele><time>2025-07-14T04:00:26.000Z</time></trkpt>
      <trkpt lat="45.8472115" lon="6.8376742"><ele>3983.1</ele><time>2025-07-14T04:01:03.000Z</time></trkpt>
      <trkpt lat="45.8471346" lon="6.8379092"><ele>3993.1</ele><time>2025-07-14T04:01:39.000Z</time></trkpt>
      <trkpt lat="45.8470339" lon="6.8380966"><ele>4001.4</ele><time>2025-07-14T04:02:14.000Z</time></trkpt>
      <trkpt lat="45.8469499" lon="6.8382712"><ele>4010.4</ele><time>2025-07-14T04:02:52.000Z</time></trkpt>
      <trkpt lat="45.8468619" lon="6.8384732"><ele>4012.8</ele><time>2025-07-14T04:03:29.000Z</time></trkpt>
      <trkpt lat="45.8467537" lon="6.8386866"><ele>4020.7</ele><time>2025-07-14T04:04:06.000Z</time></trkpt>
      <trkpt lat="45.8466972" lon="6.8388510"><ele>4029.4</ele><time>2025-07-14T04:04:40.000Z</time></trkpt>
      <trkpt lat="45.8466159" lon="6.8390496"><ele>4037.0</ele><time>2025-07-14T04:05:16.000Z</time></trkpt>
      <trkpt lat="45.8465074" lon="6.8392889"><ele>4046.1</ele><time>2025-07-14T04:05:51.000Z</time></trkpt>
      <trkpt lat="45.8464142" lon="6.8394763"><ele>4053.8</ele><time>2025-07-14T04:06:27.000Z</time></trkpt>
      <trkpt lat="45.8463204" lon="6.8396563"><ele>4066.0</ele><time>2025-07-14T04:07:01.000Z</time></trkpt>
      <trkpt lat="45.8462658" lon="6.8398367"><ele>4075.7</ele><time>2025-07-14T04:07:35.000Z</time></trkpt>
      <trkpt lat="45.8461582" lon="6.8400255"><ele>4082.7</ele><time>2025-07-14T04:08:09.000Z</time></trkpt>
      <trkpt lat="45.8460659" lon="6.8402289"><ele>4087.4</ele><time>2025-07-14T04:08:46.000Z</time></trkpt>
      <trkpt lat="45.8460003" lon="6.8404137"><ele>4096.3</ele><time>2025-07-14T04:09:21.000Z</time></trkpt>
      <trkpt lat="45.8459057" lon="6.8406338"><ele>4107.0</ele><time>2025-07-14T04:09:56.000Z</time></trkpt>
      <trkpt lat="45.8458271" lon="6.8408641"><ele>4117.2</ele><time>2025-07-14T04:10:31.000Z</time></trkpt>
      <trkpt lat="45.8457143" lon="6.8410153"><ele>4126.7</ele><time>2025-07-14T04:11:09.000Z</time></trkpt>
      <trkpt lat="45.8456216" lon="6.8412122"><ele>4136.5</ele><time>2025-07-14T04:11:45.000Z</time></trkpt>
      <trkpt lat="45.8455414" lon="6.8414164"><ele>4149.4</ele><time>2025-07-14T04:12:25.000Z</time></trkpt>
      <trkpt lat="45.8454615" lon="6.8416195"><ele>4160.0</ele><time>2025-07-14T04:13:01.000Z</time></trkpt>
      <trkpt lat="45.8453645" lon="6.8418049"><ele>4173.1</ele><time>2025-07-14T04:13:37.000Z</time></trkpt>
      <trkpt lat="45.8452767" lon="6.8419948"><ele>4178.4</ele><time>2025-07-14T04:14:14.000Z</time></trkpt>
      <trkpt lat="45.8452188" lon="6.8422261"><ele>4193.3</ele><time>2025-07-14T04:14:53.000Z</time></trkpt>
      <trkpt lat="45.8451170" lon="6.8424400"><ele>4200.3</ele><time>2025-07-14T04:15:31.000Z</time></trkpt>
      <trkpt lat="45.8450362" lon="6.8426350"><ele>4205.2</ele><time>2025-07-14T04:16:07.000Z</time></trkpt>
      <trkpt lat="45.8449479" lon="6.8428195"><ele>4213.5</ele><time>2025-07-14T04:16:47.000Z</time></trkpt>
      <trkpt lat="45.8448411" lon="6.8429732"><ele>4224.9</ele><time>2025-07-14T04:17:24.000Z</time></trkpt>
      <trkpt lat="45.8447876" lon="6.8432174"><ele>4232.4</ele><time>2025-07-14T04:18:00.000Z</time></trkpt>
      <trkpt lat="45.8446888" lon="6.8434094"><ele>4238.6</ele><time>2025-07-14T04:18:40.000Z</time></trkpt>
      <trkpt lat="45.8446095" lon="6.8436106"><ele>4244.7</ele><time>2025-07-14T04:19:18.000Z</time></trkpt>
      <trkpt lat="45.8445019" lon="6.8437660"><ele>4250.7</ele><time>2025-07-14T04:19:57.000Z</time></trkpt>
      <trkpt lat="45.8444373" lon="6.8439852"><ele>4253.7</ele><time>2025-07-14T04:20:37.000Z</time></trkpt>
      <trkpt lat="45.8443199" lon="6.8441995"><ele>4255.9</ele><time>2025-07-14T04:21:15.000Z</time></trkpt>
      <trkpt lat="45.8442438" lon="6.8443595"><ele>4260.6</ele><time>2025-07-14T04:21:52.000Z</time></trkpt>
      <trkpt lat="45.8441795" lon="6.8446047"><ele>4263.0</ele><time>2025-07-14T04:22:34.000Z</time></trkpt>
      <trkpt lat="45.8440603" lon="6.8447676"><ele>4260.5</ele><time>2025-07-14T04:23:15.000Z</time></trkpt>
      <trkpt lat="45.8440033" lon="6.8449908"><ele>4259.0</ele><time>2025-07-14T04:23:54.000Z</time></trkpt>
      <trkpt lat="45.8438963" lon="6.8451457"><ele>4261.8</ele><time>2025-07-14T04:24:33.000Z</time></trkpt>
      <trkpt lat="45.8438030" lon="6.8453771"><ele>4256.2</ele><time>2025-07-14T04:25:14.000Z</time></trkpt>
      <trkpt lat="45.8437137" lon="6.8455785"><ele>4252.5</ele><time>2025-07-14T04:25:52.000Z</time></trkpt>
      <trkpt lat="45.8436570" lon="6.8457823"><ele>4251.5</ele><time>2025-07-14T04:26:33.000Z</time></trkpt>
      <trkpt lat="45.8435599" lon="6.8459366"><ele>4253.7</ele><time>2025-07-14T04:27:13.000Z</time></trkpt>
      <trkpt lat="45.8434561" lon="6.8461791"><ele>4249.5</ele><time>2025-07-14T04:27:51.000Z</time></trkpt>
      <trkpt lat="45.8433874" lon="6.8463662"><ele>4244.9</ele><time>2025-07-14T04:28:29.000Z</time></trkpt>
      <trkpt lat="45.8432936" lon="6.8465289"><ele>4242.0</ele><time>2025-07-14T04:29:06.000Z</time></trkpt>
      <trkpt lat="45.8432048" lon="6.8467452"><ele>4240.5</ele><time>2025-07-14T04:29:42.000Z</time></trkpt>
      <trkpt lat="45.8430994" lon="6.8469417"><ele>4235.5</ele><time>2025-07-14T04:30:18.000Z</time></trkpt>
      <trkpt lat="45.8430293" lon="6.8471340"><ele>4229.3</ele><time>2025-07-14T04:30:59.000Z</time></trkpt>
      <trkpt lat="45.8429374" lon="6.8473301"><ele>4220.8</ele><time>2025-07-14T04:31:40.000Z</time></trkpt>
      <trkpt lat="45.8428505" lon="6.8475290"><ele>4219.3</ele><time>2025-07-14T04:32:16.000Z</time></trkpt>
      <trkpt lat="45.8427699" lon="6.8477373"><ele>4212.5</ele><time>2025-07-14T04:32:54.000Z</time></trkpt>
      <trkpt lat="45.8426633" lon="6.8479217"><ele>4212.4</ele><time>2025-07-14T04:33:34.000Z</time></trkpt>
      <trkpt lat="45.8426039" lon="6.8481094"><ele>4203.3</ele><time>2025-07-14T04:34:11.000Z</time></trkpt>
      <trkpt lat="45.8424979" lon="6.8483101"><ele>4203.9</ele><time>2025-07-14T04:34:48.000Z</time></trkpt>
      <trkpt lat="45.8424328" lon="6.8485190"><ele>4199.8</ele><time>2025-07-14T04:35:28.000Z</time></trkpt>
      <trkpt lat="45.8423495" lon="6.8487242"><ele>4196.9</ele><time>2025-07-14T04:36:06.000Z</time></trkpt>
      <trkpt lat="45.8422295" lon="6.8489072"><ele>4194.6</ele><time>2025-07-14T04:36:46.000Z</time></trkpt>
      <trkpt lat="45.8421781" lon="6.8491201"><ele>4192.5</ele><time>2025-07-14T04:37:22.000Z</time></trkpt>
      <trkpt lat="45.8420822" lon="6.8492847"><ele>4187.7</ele><time>2025-07-14T04:38:00.000Z</time></trkpt>
      <trkpt lat="45.8419759" lon="6.8495178"><ele>4188.6</ele><time>2025-07-14T04:38:37.000Z</time></trkpt>
      <trkpt lat="45.8419139" lon="6.8496716"><ele>4191.5</ele><time>2025-07-14T04:39:14.000Z</time></trkpt>
      <trkpt lat="45.8418504" lon="6.8498838"><ele>4190.0</ele><time>2025-07-14T04:39:54.000Z</time></trkpt>
      <trkpt lat="45.8417647" lon="6.8501539"><ele>4190.6</ele><time>2025-07-14T04:40:31.000Z</time></trkpt>
      <trkpt lat="45.8416867" lon="6.8503150"><ele>4192.4</ele><time>2025-07-14T04:41:11.000Z</time></trkpt>
      <trkpt lat="45.8416447" lon="6.8505744"><ele>4192.8</ele><time>2025-07-14T04:41:49.000Z</time></trkpt>
      <trkpt lat="45.8415552" lon="6.8507638"><ele>4196.0</ele><time>2025-07-14T04:42:27.000Z</time></trkpt>
      <trkpt lat="45.8415032" lon="6.8509618"><ele>4196.9</ele><time>2025-07-14T04:43:05.000Z</time></trkpt>
      <trkpt lat="45.8414402" lon="6.8511566"><ele>4193.4</ele><time>2025-07-14T04:43:41.000Z</time></trkpt>
      <trkpt lat="45.8413858" lon="6.8514089"><ele>4197.1</ele><time>2025-07-14T04:44:18.000Z</time></trkpt>
      <trkpt lat="45.8412918" lon="6.8516380"><ele>4191.5</ele><time>2025-07-14T04:44:56.000Z</time></trkpt>
      <trkpt lat="45.8412263" lon="6.8518055"><ele>4191.4</ele><time>2025-07-14T04:45:31.000Z</time></trkpt>
      <trkpt lat="45.8411562" lon="6.8520540"><ele>4189.5</ele><time>2025-07-14T04:46:08.000Z</time></trkpt>
      <trkpt lat="45.8411185" lon="6.8522180"><ele>4185.7</ele><time>2025-07-14T04:46:46.000Z</time></trkpt>
      <trkpt lat="45.8410164" lon="6.8524583"><ele>4185.1</ele><time>2025-07-14T04:47:23.000Z</time></trkpt>
      <trkpt lat="45.8409551" lon="6.8526997"><ele>4182.0</ele><time>2025-07-14T04:48:00.000Z</time></trkpt>
      <trkpt lat="45.8408840" lon="6.8529037"><ele>4174.7</ele><time>2025-07-14T04:48:41.000Z</time></trkpt>
      <trkpt lat="45.8408201" lon="6.8531043"><ele>4170.4</ele><time>2025-07-14T04:49:19.000Z</time></trkpt>
      <trkpt lat="45.8407736" lon="6.8533088"><ele>4169.7</ele><time>2025-07-14T04:49:59.000Z</time></trkpt>
      <trkpt lat="45.8406940" lon="6.8534901"><ele>4166.4</ele><time>2025-07-14T04:50:39.000Z</time></trkpt>
      <trkpt lat="45.8406187" lon="6.8537545"><ele>4161.0</ele><time>2025-07-14T04:51:19.000Z</time></trkpt>
      <trkpt lat="45.8405555" lon="6.8539654"><ele>4150.7</ele><time>2025-07-14T04:51:55.000Z</time></trkpt>
      <trkpt lat="45.8405082" lon="6.8541764"><ele>4145.8</ele><time>2025-07-14T04:52:33.000Z</time></trkpt>
      <trkpt lat="45.8404478" lon="6.8543499"><ele>4136.5</ele><time>2025-07-14T04:53:08.000Z</time></trkpt>
      <trkpt lat="45.8403474" lon="6.8546002"><ele>4134.6</ele><time>2025-07-14T04:53:46.000Z</time></trkpt>
      <trkpt lat="45.8403039" lon="6.8547656"><ele>4126.0</ele><time>2025-07-14T04:54:26.000Z</time></trkpt>
      <trkpt lat="45.8402451" lon="6.8549880"><ele>4121.9</ele><time>2025-07-14T04:55:02.000Z</time></trkpt>
      <trkpt lat="45.8401735" lon="6.8552239"><ele>4121.1</ele><time>2025-07-14T04:55:40.000Z</time></trkpt>
      <trkpt lat="45.8400841" lon="6.8554399"><ele>4123.1</ele><time>2025-07-14T04:56:16.000Z</time></trkpt>
      <trkpt lat="45.8400312" lon="6.8556405"><ele>4117.4</ele><time>2025-07-14T04:56:52.000Z</time></trkpt>
      <trkpt lat="45.8399800" lon="6.8558413"><ele>4112.5</ele><time>2025-07-14T04:57:28.000Z</time></trkpt>
      <trkpt lat="45.8399109" lon="6.8560820"><ele>4114.3</ele><time>2025-07-14T04:58:06.000Z</time></trkpt>
      <trkpt lat="45.8398339" lon="6.8562929"><ele>4116.8</ele><time>2025-07-14T04:58:43.000Z</time></trkpt>
      <trkpt lat="45.8397544" lon="6.8565020"><ele>4115.7</ele><time>2025-07-14T04:59:21.000Z</time></trkpt>
      <trkpt lat="45.8396918" lon="6.8567150"><ele>4116.2</ele><time>2025-07-14T05:00:00.000Z</time></trkpt>
      <trkpt lat="45.8395601" lon="6.8568656"><ele>4125.7</ele><time>2025-07-14T05:00:34.000Z</time></trkpt>
      <trkpt lat="45.8394432" lon="6.8569729"><ele>4129.8</ele><time>2025-07-14T05:01:08.000Z</time></trkpt>
      <trkpt lat="45.8393134" lon="6.8570950"><ele>4134.0</ele><time>2025-07-14T05:01:43.000Z</time></trkpt>
      <trkpt lat="45.8391830" lon="6.8572359"><ele>4144.1</ele><time>2025-07-14T05:02:21.000Z</time></trkpt>
      <trkpt lat="45.8390579" lon="6.8574220"><ele>4148.6</ele><time>2025-07-14T05:02:56.000Z</time></trkpt>
      <trkpt lat="45.8389065" lon="6.8575254"><ele>4156.8</ele><time>2025-07-14T05:03:31.000Z</time></trkpt>
      <trkpt lat="45.8387615" lon="6.8577026"><ele>4169.9</ele><time>2025-07-14T05:04:06.000Z</time></trkpt>
      <trkpt lat="45.8386330" lon="6.8578012"><ele>4177.2</ele><time>2025-07-14T05:04:44.000Z</time></trkpt>
      <trkpt lat="45.8385214" lon="6.8579606"><ele>4184.7</ele><time>2025-07-14T05:05:24.000Z</time></trkpt>
      <trkpt lat="45.8383786" lon="6.8581344"><ele>4190.3</ele><time>2025-07-14T05:06:03.000Z</time></trkpt>
      <trkpt lat="45.8382545" lon="6.8582195"><ele>4201.9</ele><time>2025-07-14T05:06:41.000Z</time></trkpt>
      <trkpt lat="45.8381175" lon="6.8584107"><ele>4213.1</ele><time>2025-07-14T05:07:20.000Z</time></trkpt>
      <trkpt lat="45.8379765" lon="6.8585422"><ele>4219.0</ele><time>2025-07-14T05:07:57.000Z</time></trkpt>
      <trkpt lat="45.8378740" lon="6.8586490"><ele>4232.4</ele><time>2025-07-14T05:08:37.000Z</time></trkpt>
      <trkpt lat="45.8377238" lon="6.8587857"><ele>4245.4</ele><time>2025-07-14T05:09:15.000Z</time></trkpt>
      <trkpt lat="45.8376029" lon="6.8589368"><ele>4258.5</ele><time>2025-07-14T05:09:54.000Z</time></trkpt>
      <trkpt lat="45.8374611" lon="6.8590824"><ele>4271.1</ele><time>2025-07-14T05:10:31.000Z</time></trkpt>
      <trkpt lat="45.8373263" lon="6.8592353"><ele>4283.4</ele><time>2025-07-14T05:11:11.000Z</time></trkpt>
      <trkpt lat="45.8372229" lon="6.8593454"><ele>4296.9</ele><time>2025-07-14T05:11:51.000Z</time></trkpt>
      <trkpt lat="45.8370942" lon="6.8595421"><ele>4308.3</ele><time>2025-07-14T05:12:31.000Z</time></trkpt>
      <trkpt lat="45.8369359" lon="6.8596357"><ele>4327.2</ele><time>2025-07-14T05:13:08.000Z</time></trkpt>
      <trkpt lat="45.8368111" lon="6.8597712"><ele>4342.9</ele><time>2025-07-14T05:13:49.000Z</time></trkpt>
      <trkpt lat="45.8366996" lon="6.8599577"><ele>4359.2</ele><time>2025-07-14T05:14:30.000Z</time></trkpt>
      <trkpt lat="45.8365513" lon="6.8600980"><ele>4385.1</ele><time>2025-07-14T05:15:08.000Z</time></trkpt>
      <trkpt lat="45.8364291" lon="6.8602432"><ele>4413.0</ele><time>2025-07-14T05:15:51.000Z</time></trkpt>
      <trkpt lat="45.8362740" lon="6.8603507"><ele>4429.8</ele><time>2025-07-14T05:16:33.000Z</time></trkpt>
      <trkpt lat="45.8361701" lon="6.8604793"><ele>4440.4</ele><time>2025-07-14T05:17:14.000Z</time></trkpt>
      <trkpt lat="45.8360069" lon="6.8606100"><ele>4455.3</ele><time>2025-07-14T05:17:56.000Z</time></trkpt>
      <trkpt lat="45.8358909" lon="6.8607807"><ele>4468.4</ele><time>2025-07-14T05:18:37.000Z</time></trkpt>
      <trkpt lat="45.8357503" lon="6.8609021"><ele>4482.5</ele><time>2025-07-14T05:19:19.000Z</time></trkpt>
      <trkpt lat="45.8356226" lon="6.8610319"><ele>4498.5</ele><time>2025-07-14T05:20:00.000Z</time></trkpt>
      <trkpt lat="45.8354901" lon="6.8612066"><ele>4510.8</ele><time>2025-07-14T05:20:43.000Z</time></trkpt>
      <trkpt lat="45.8353824" lon="6.8613558"><ele>4518.5</ele><time>2025-07-14T05:21:23.000Z</time></trkpt>
      <trkpt lat="45.8352717" lon="6.8615251"><ele>4533.8</ele><time>2025-07-14T05:22:03.000Z</time></trkpt>
      <trkpt lat="45.8351650" lon="6.8616500"><ele>4546.8</ele><time>2025-07-14T05:22:43.000Z</time></trkpt>
      <trkpt lat="45.8350485" lon="6.8618639"><ele>4556.2</ele><time>2025-07-14T05:23:24.000Z</time></trkpt>
      <trkpt lat="45.8349397" lon="6.8620275"><ele>4565.5</ele><time>2025-07-14T05:24:08.000Z</time></trkpt>
      <trkpt lat="45.8348233" lon="6.8621844"><ele>4582.3</ele><time>2025-07-14T05:24:50.000Z</time></trkpt>
      <trkpt lat="45.8346876" lon="6.8623407"><ele>4594.9</ele><time>2025-07-14T05:25:33.000Z</time></trkpt>
      <trkpt lat="45.8345647" lon="6.8624777"><ele>4616.9</ele><time>2025-07-14T05:26:15.000Z</time></trkpt>
      <trkpt lat="45.8344702" lon="6.8626276"><ele>4632.7</ele><time>2025-07-14T05:27:01.000Z</time></trkpt>
      <trkpt lat="45.8343225" lon="6.8627952"><ele>4649.4</ele><time>2025-07-14T05:27:44.000Z</time></trkpt>
      <trkpt lat="45.8342383" lon="6.8629844"><ele>4660.3</ele><time>2025-07-14T05:28:29.000Z</time></trkpt>
      <trkpt lat="45.8341034" lon="6.8631348"><ele>4674.0</ele><time>2025-07-14T05:29:13.000Z</time></trkpt>
      <trkpt lat="45.8339868" lon="6.8632712"><ele>4683.5</ele><time>2025-07-14T05:29:56.000Z</time></trkpt>
      <trkpt lat="45.8338843" lon="6.8634682"><ele>4704.1</ele><time>2025-07-14T05:30:38.000Z</time></trkpt>
      <trkpt lat="45.8337724" lon="6.8636093"><ele>4723.0</ele><time>2025-07-14T05:31:24.000Z</time></trkpt>
      <trkpt lat="45.8336518" lon="6.8637478"><ele>4743.9</ele><time>2025-07-14T05:32:07.000Z</time></trkpt>
      <trkpt lat="45.8335201" lon="6.8639241"><ele>4754.3</ele><time>2025-07-14T05:32:53.000Z</time></trkpt>
      <trkpt lat="45.8333954" lon="6.8641074"><ele>4759.8</ele><time>2025-07-14T05:33:39.000Z</time></trkpt>
      <trkpt lat="45.8332878" lon="6.8642664"><ele>4768.0</ele><time>2025-07-14T05:34:25.000Z</time></trkpt>
      <trkpt lat="45.8331983" lon="6.8643981"><ele>4774.4</ele><time>2025-07-14T05:35:11.000Z</time></trkpt>
      <trkpt lat="45.8330601" lon="6.8645882"><ele>4780.1</ele><time>2025-07-14T05:35:55.000Z</time></trkpt>
      <trkpt lat="45.8329293" lon="6.8647335"><ele>4782.2</ele><time>2025-07-14T05:36:38.000Z</time></trkpt>
      <trkpt lat="45.8328483" lon="6.8649032"><ele>4785.3</ele><time>2025-07-14T05:37:21.000Z</time></trkpt>
      <trkpt lat="45.8327263" lon="6.8650185"><ele>4781.2</ele><time>2025-07-14T05:38:08.000Z</time></trkpt>
      <trkpt lat="45.8326155" lon="6.8651729"><ele>4781.0</ele><time>2025-07-14T05:38:51.000Z</time></trkpt>
    </trkseg>
  </trk>
</gpx>
