<?xml version="1.0" encoding="UTF-8"?>
<gpx version="1.1" creator="MountainMadness seed (approximate, from waypoints)" xmlns="http://www.topografix.com/GPX/1/1">
  <metadata><name>Mount Bogong — Eskdale Spur</name></metadata>
  <trk><name>Eskdale Spur</name><trkseg>
      <trkpt lat="-36.7614001" lon="147.3118841"><ele>1553.9</ele><time>2025-09-13T04:30:20.000Z</time></trkpt>
      <trkpt lat="-36.7612399" lon="147.3117164"><ele>1547.4</ele><time>2025-09-13T04:30:39.000Z</time></trkpt>
      <trkpt lat="-36.7610752" lon="147.3115367"><ele>1533.1</ele><time>2025-09-13T04:30:58.000Z</time></trkpt>
      <trkpt lat="-36.7608905" lon="147.3113255"><ele>1526.6</ele><time>2025-09-13T04:31:17.000Z</time></trkpt>
      <trkpt lat="-36.7607358" lon="147.3111534"><ele>1523.1</ele><time>2025-09-13T04:31:40.000Z</time></trkpt>
      <trkpt lat="-36.7605711" lon="147.3109855"><ele>1524.6</ele><time>2025-09-13T04:31:57.000Z</time></trkpt>
      <trkpt lat="-36.7603918" lon="147.3108007"><ele>1518.3</ele><time>2025-09-13T04:32:21.000Z</time></trkpt>
      <trkpt lat="-36.7602168" lon="147.3106187"><ele>1517.7</ele><time>2025-09-13T04:32:41.000Z</time></trkpt>
      <trkpt lat="-36.7600667" lon="147.3104111"><ele>1512.0</ele><time>2025-09-13T04:32:59.000Z</time></trkpt>
      <trkpt lat="-36.7598819" lon="147.3102391"><ele>1511.7</ele><time>2025-09-13T04:33:22.000Z</time></trkpt>
      <trkpt lat="-36.7597097" lon="147.3100674"><ele>1510.7</ele><time>2025-09-13T04:33:39.000Z</time></trkpt>
      <trkpt lat="-36.7595346" lon="147.3098559"><ele>1506.2</ele><time>2025-09-13T04:34:03.000Z</time></trkpt>
      <trkpt lat="-36.7593868" lon="147.3096923"><ele>1506.8</ele><time>2025-09-13T04:34:21.000Z</time></trkpt>
      <trkpt lat="-36.7592229" lon="147.3095109"><ele>1507.9</ele><time>2025-09-13T04:34:43.000Z</time></trkpt>
      <trkpt lat="-36.7590342" lon="147.3093122"><ele>1509.5</ele><time>2025-09-13T04:35:00.000Z</time></trkpt>
      <trkpt lat="-36.7588679" lon="147.3091147"><ele>1512.2</ele><time>2025-09-13T04:35:19.000Z</time></trkpt>
      <trkpt lat="-36.7587017" lon="147.3089369"><ele>1517.4</ele><time>2025-09-13T04:35:35.000Z</time></trkpt>
      <trkpt lat="-36.7585261" lon="147.3087447"><ele>1518.6</ele><time>2025-09-13T04:35:59.000Z</time></trkpt>
      <trkpt lat="-36.7583795" lon="147.3085778"><ele>1509.6</ele><time>2025-09-13T04:36:16.000Z</time></trkpt>
      <trkpt lat="-36.7581982" lon="147.3083673"><ele>1501.9</ele><time>2025-09-13T04:36:38.000Z</time></trkpt>
      <trkpt lat="-36.7580201" lon="147.3081788"><ele>1490.1</ele><time>2025-09-13T04:36:58.000Z</time></trkpt>
      <trkpt lat="-36.7578641" lon="147.3080171"><ele>1474.9</ele><time>2025-09-13T04:37:15.000Z</time></trkpt>
      <trkpt lat="-36.7577042" lon="147.3078336"><ele>1459.9</ele><time>2025-09-13T04:37:31.000Z</time></trkpt>
      <trkpt lat="-36.7575282" lon="147.3076437"><ele>1444.1</ele><time>2025-09-13T04:37:47.000Z</time></trkpt>
      <trkpt lat="-36.7573703" lon="147.3074439"><ele>1430.5</ele><time>2025-09-13T04:38:07.000Z</time></trkpt>
      <trkpt lat="-36.7571992" lon="147.3072693"><ele>1413.6</ele><time>2025-09-13T04:38:29.000Z</time></trkpt>
      <trkpt lat="-36.7570142" lon="147.3070896"><ele>1399.3</ele><time>2025-09-13T04:38:53.000Z</time></trkpt>
      <trkpt lat="-36.7568357" lon="147.3068927"><ele>1387.5</ele><time>2025-09-13T04:39:12.000Z</time></trkpt>
      <trkpt lat="-36.7566762" lon="147.3067099"><ele>1377.5</ele><time>2025-09-13T04:39:32.000Z</time></trkpt>
      <trkpt lat="-36.7565100" lon="147.3065449"><ele>1363.3</ele><time>2025-09-13T04:39:55.000Z</time></trkpt>
      <trkpt lat="-36.7563509" lon="147.3063293"><ele>1356.0</ele><time>2025-09-13T04:40:15.000Z</time></trkpt>
      <trkpt lat="-36.7561666" lon="147.3061628"><ele>1352.3</ele><time>2025-09-13T04:40:34.000Z</time></trkpt>
      <trkpt lat="-36.7559997" lon="147.3059894"><ele>1337.2</ele><time>2025-09-13T04:40:54.000Z</time></trkpt>
      <trkpt lat="-36.7558345" lon="147.3058037"><ele>1323.5</ele><time>2025-09-13T04:41:15.000Z</time></trkpt>
      <trkpt lat="-36.7556794" lon="147.3056107"><ele>1316.6</ele><time>2025-09-13T04:41:35.000Z</time></trkpt>
      <trkpt lat="-36.7555039" lon="147.3054207"><ele>1320.9</ele><time>2025-09-13T04:41:55.000Z</time></trkpt>
      <trkpt lat="-36.7553331" lon="147.3052361"><ele>1325.5</ele><time>2025-09-13T04:42:14.000Z</time></trkpt>
      <trkpt lat="-36.7551657" lon="147.3050530"><ele>1319.4</ele><time>2025-09-13T04:42:30.000Z</time></trkpt>
      <trkpt lat="-36.7549945" lon="147.3048822"><ele>1312.5</ele><time>2025-09-13T04:42:51.000Z</time></trkpt>
      <trkpt lat="-36.7548426" lon="147.3046948"><ele>1306.8</ele><time>2025-09-13T04:43:13.000Z</time></trkpt>
      <trkpt lat="-36.7546456" lon="147.3044892"><ele>1310.8</ele><time>2025-09-13T04:43:31.000Z</time></trkpt>
      <trkpt lat="-36.7544944" lon="147.3043230"><ele>1312.1</ele><time>2025-09-13T04:43:49.000Z</time></trkpt>
      <trkpt lat="-36.7543148" lon="147.3041040"><ele>1311.2</ele><time>2025-09-13T04:44:09.000Z</time></trkpt>
      <trkpt lat="-36.7541412" lon="147.3039192"><ele>1319.9</ele><time>2025-09-13T04:44:28.000Z</time></trkpt>
      <trkpt lat="-36.7539839" lon="147.3037350"><ele>1325.7</ele><time>2025-09-13T04:44:51.000Z</time></trkpt>
      <trkpt lat="-36.7538046" lon="147.3035563"><ele>1333.6</ele><time>2025-09-13T04:45:13.000Z</time></trkpt>
      <trkpt lat="-36.7536452" lon="147.3034013"><ele>1336.1</ele><time>2025-09-13T04:45:36.000Z</time></trkpt>
      <trkpt lat="-36.7534673" lon="147.3031939"><ele>1337.7</ele><time>2025-09-13T04:45:58.000Z</time></trkpt>
      <trkpt lat="-36.7533214" lon="147.3030143"><ele>1343.5</ele><time>2025-09-13T04:46:20.000Z</time></trkpt>
      <trkpt lat="-36.7531435" lon="147.3028413"><ele>1340.2</ele><time>2025-09-13T04:46:41.000Z</time></trkpt>
      <trkpt lat="-36.7529614" lon="147.3026587"><ele>1331.1</ele><time>2025-09-13T04:47:05.000Z</time></trkpt>
      <trkpt lat="-36.7528074" lon="147.3024555"><ele>1341.8</ele><time>2025-09-13T04:47:22.000Z</time></trkpt>
      <trkpt lat="-36.7526231" lon="147.3022510"><ele>1358.5</ele><time>2025-09-13T04:47:42.000Z</time></trkpt>
      <trkpt lat="-36.7524582" lon="147.3020910"><ele>1363.5</ele><time>2025-09-13T04:47:58.000Z</time></trkpt>
      <trkpt lat="-36.7522879" lon="147.3018812"><ele>1366.9</ele><time>2025-09-13T04:48:19.000Z</time></trkpt>
      <trkpt lat="-36.7521178" lon="147.3017305"><ele>1376.5</ele><time>2025-09-13T04:48:37.000Z</time></trkpt>
      <trkpt lat="-36.7519757" lon="147.3015209"><ele>1390.7</ele><time>2025-09-13T04:48:57.000Z</time></trkpt>
      <trkpt lat="-36.7517900" lon="147.3013595"><ele>1397.2</ele><time>2025-09-13T04:49:18.000Z</time></trkpt>
      <trkpt lat="-36.7516170" lon="147.3011635"><ele>1402.2</ele><time>2025-09-13T04:49:38.000Z</time></trkpt>
      <trkpt lat="-36.7514449" lon="147.3009749"><ele>1417.6</ele><time>2025-09-13T04:49:56.000Z</time></trkpt>
      <trkpt lat="-36.7513028" lon="147.3007937"><ele>1431.2</ele><time>2025-09-13T04:50:12.000Z</time></trkpt>
      <trkpt lat="-36.7511069" lon="147.3006059"><ele>1438.1</ele><time>2025-09-13T04:50:34.000Z</time></trkpt>
      <trkpt lat="-36.7509608" lon="147.3003994"><ele>1439.4</ele><time>2025-09-13T04:50:52.000Z</time></trkpt>
      <trkpt lat="-36.7507710" lon="147.3002229"><ele>1445.0</ele><time>2025-09-13T04:51:15.000Z</time></trkpt>
      <trkpt lat="-36.7506294" lon="147.3000469"><ele>1452.5</ele><time>2025-09-13T04:51:36.000Z</time></trkpt>
      <trkpt lat="-36.7504528" lon="147.2998824"><ele>1467.2</ele><time>2025-09-13T04:51:59.000Z</time></trkpt>
      <trkpt lat="-36.7502685" lon="147.2996804"><ele>1486.1</ele><time>2025-09-13T04:52:17.000Z</time></trkpt>
      <trkpt lat="-36.7501228" lon="147.2994881"><ele>1501.0</ele><time>2025-09-13T04:52:39.000Z</time></trkpt>
      <trkpt lat="-36.7499427" lon="147.2992874"><ele>1507.8</ele><time>2025-09-13T04:53:02.000Z</time></trkpt>
      <trkpt lat="-36.7497603" lon="147.2991024"><ele>1513.3</ele><time>2025-09-13T04:53:23.000Z</time></trkpt>
      <trkpt lat="-36.7495895" lon="147.2989544"><ele>1514.5</ele><time>2025-09-13T04:53:46.000Z</time></trkpt>
      <trkpt lat="-36.7494269" lon="147.2987600"><ele>1524.5</ele><time>2025-09-13T04:54:05.000Z</time></trkpt>
      <trkpt lat="-36.7492600" lon="147.2985723"><ele>1537.8</ele><time>2025-09-13T04:54:27.000Z</time></trkpt>
      <trkpt lat="-36.7491001" lon="147.2983670"><ele>1549.6</ele><time>2025-09-13T04:54:45.000Z</time></trkpt>
      <trkpt lat="-36.7489242" lon="147.2982159"><ele>1557.3</ele><time>2025-09-13T04:55:08.000Z</time></trkpt>
      <trkpt lat="-36.7487733" lon="147.2980000"><ele>1564.5</ele><time>2025-09-13T04:55:26.000Z</time></trkpt>
      <trkpt lat="-36.7485983" lon="147.2978090"><ele>1568.5</ele><time>2025-09-13T04:55:45.000Z</time></trkpt>
      <trkpt lat="-36.7484253" lon="147.2976450"><ele>1575.0</ele><time>2025-09-13T04:56:07.000Z</time></trkpt>
      <trkpt lat="-36.7482705" lon="147.2974666"><ele>1581.0</ele><time>2025-09-13T04:56:27.000Z</time></trkpt>
      <trkpt lat="-36.7480837" lon="147.2972537"><ele>1589.5</ele><time>2025-09-13T04:56:50.000Z</time></trkpt>
      <trkpt lat="-36.7479117" lon="147.2970793"><ele>1600.0</ele><time>2025-09-13T04:57:13.000Z</time></trkpt>
      <trkpt lat="-36.7477481" lon="147.2968831"><ele>1614.4</ele><time>2025-09-13T04:57:36.000Z</time></trkpt>
      <trkpt lat="-36.7475694" lon="147.2967165"><ele>1627.9</ele><time>2025-09-13T04:57:55.000Z</time></trkpt>
      <trkpt lat="-36.7474050" lon="147.2965123"><ele>1639.1</ele><time>2025-09-13T04:58:13.000Z</time></trkpt>
      <trkpt lat="-36.7472455" lon="147.2963585"><ele>1648.0</ele><time>2025-09-13T04:58:35.000Z</time></trkpt>
      <trkpt lat="-36.7470820" lon="147.2961687"><ele>1658.6</ele><time>2025-09-13T04:59:00.000Z</time></trkpt>
      <trkpt lat="-36.7469055" lon="147.2959577"><ele>1668.5</ele><time>2025-09-13T04:59:25.000Z</time></trkpt>
      <trkpt lat="-36.7467386" lon="147.2957831"><ele>1682.7</ele><time>2025-09-13T04:59:50.000Z</time></trkpt>
      <trkpt lat="-36.7465639" lon="147.2955888"><ele>1694.6</ele><time>2025-09-13T05:00:09.000Z</time></trkpt>
      <trkpt lat="-36.7464155" lon="147.2954102"><ele>1701.8</ele><time>2025-09-13T05:00:29.000Z</time></trkpt>
      <trkpt lat="-36.7462198" lon="147.2952254"><ele>1707.9</ele><time>2025-09-13T05:00:48.000Z</time></trkpt>
      <trkpt lat="-36.7460661" lon="147.2950553"><ele>1718.0</ele><time>2025-09-13T05:01:10.000Z</time></trkpt>
      <trkpt lat="-36.7459108" lon="147.2948565"><ele>1731.5</ele><time>2025-09-13T05:01:34.000Z</time></trkpt>
      <trkpt lat="-36.7457312" lon="147.2946885"><ele>1738.4</ele><time>2025-09-13T05:01:57.000Z</time></trkpt>
      <trkpt lat="-36.7455586" lon="147.2944761"><ele>1748.2</ele><time>2025-09-13T05:02:21.000Z</time></trkpt>
      <trkpt lat="-36.7453955" lon="147.2943154"><ele>1764.5</ele><time>2025-09-13T05:02:41.000Z</time></trkpt>
      <trkpt lat="-36.7452222" lon="147.2941155"><ele>1778.1</ele><time>2025-09-13T05:03:04.000Z</time></trkpt>
      <trkpt lat="-36.7450415" lon="147.2939178"><ele>1784.5</ele><time>2025-09-13T05:03:27.000Z</time></trkpt>
      <trkpt lat="-36.7448777" lon="147.2937366"><ele>1787.2</ele><time>2025-09-13T05:03:49.000Z</time></trkpt>
      <trkpt lat="-36.7447094" lon="147.2935866"><ele>1791.2</ele><time>2025-09-13T05:04:08.000Z</time></trkpt>
      <trkpt lat="-36.7445503" lon="147.2933843"><ele>1794.2</ele><time>2025-09-13T05:04:33.000Z</time></trkpt>
      <trkpt lat="-36.7443769" lon="147.2931878"><ele>1790.4</ele><time>2025-09-13T05:04:53.000Z</time></trkpt>
      <trkpt lat="-36.7442177" lon="147.2930123"><ele>1790.0</ele><time>2025-09-13T05:05:14.000Z</time></trkpt>
      <trkpt lat="-36.7440287" lon="147.2928151"><ele>1791.7</ele><time>2025-09-13T05:05:41.000Z</time></trkpt>
      <trkpt lat="-36.7438662" lon="147.2926286"><ele>1797.5</ele><time>2025-09-13T05:06:03.000Z</time></trkpt>
      <trkpt lat="-36.7436957" lon="147.2924369"><ele>1810.7</ele><time>2025-09-13T05:06:25.000Z</time></trkpt>
      <trkpt lat="-36.7435290" lon="147.2922740"><ele>1826.8</ele><time>2025-09-13T05:06:49.000Z</time></trkpt>
      <trkpt lat="-36.7433721" lon="147.2921001"><ele>1840.5</ele><time>2025-09-13T05:07:15.000Z</time></trkpt>
      <trkpt lat="-36.7431978" lon="147.2919190"><ele>1856.7</ele><time>2025-09-13T05:07:40.000Z</time></trkpt>
      <trkpt lat="-36.7430062" lon="147.2917277"><ele>1869.1</ele><time>2025-09-13T05:08:00.000Z</time></trkpt>
      <trkpt lat="-36.7428367" lon="147.2915840"><ele>1882.1</ele><time>2025-09-13T05:08:23.000Z</time></trkpt>
      <trkpt lat="-36.7426438" lon="147.2914341"><ele>1889.7</ele><time>2025-09-13T05:08:43.000Z</time></trkpt>
      <trkpt lat="-36.7424519" lon="147.2912539"><ele>1897.6</ele><time>2025-09-13T05:09:09.000Z</time></trkpt>
      <trkpt lat="-36.7422815" lon="147.2911120"><ele>1907.9</ele><time>2025-09-13T05:09:34.000Z</time></trkpt>
      <trkpt lat="-36.7420834" lon="147.2909404"><ele>1912.0</ele><time>2025-09-13T05:09:58.000Z</time></trkpt>
      <trkpt lat="-36.7419127" lon="147.2907934"><ele>1920.1</ele><time>2025-09-13T05:10:25.000Z</time></trkpt>
      <trkpt lat="-36.7417343" lon="147.2906244"><ele>1928.0</ele><time>2025-09-13T05:10:46.000Z</time></trkpt>
      <trkpt lat="-36.7415345" lon="147.2904753"><ele>1931.9</ele><time>2025-09-13T05:11:12.000Z</time></trkpt>
      <trkpt lat="-36.7413624" lon="147.2903051"><ele>1937.1</ele><time>2025-09-13T05:11:37.000Z</time></trkpt>
      <trkpt lat="-36.7411814" lon="147.2901276"><ele>1940.0</ele><time>2025-09-13T05:12:00.000Z</time></trkpt>
      <trkpt lat="-36.7409957" lon="147.2899754"><ele>1940.5</ele><time>2025-09-13T05:12:26.000Z</time></trkpt>
      <trkpt lat="-36.7408161" lon="147.2898346"><ele>1945.3</ele><time>2025-09-13T05:12:49.000Z</time></trkpt>
      <trkpt lat="-36.7406201" lon="147.2896781"><ele>1951.1</ele><time>2025-09-13T05:13:10.000Z</time></trkpt>
      <trkpt lat="-36.7404425" lon="147.2894905"><ele>1956.7</ele><time>2025-09-13T05:13:37.000Z</time></trkpt>
      <trkpt lat="-36.7402414" lon="147.2893421"><ele>1961.1</ele><time>2025-09-13T05:14:02.000Z</time></trkpt>
      <trkpt lat="-36.7400757" lon="147.2891708"><ele>1960.5</ele><time>2025-09-13T05:14:30.000Z</time></trkpt>
      <trkpt lat="-36.7399008" lon="147.2890022"><ele>1963.9</ele><time>2025-09-13T05:14:53.000Z</time></trkpt>
      <trkpt lat="-36.7397171" lon="147.2888773"><ele>1965.9</ele><time>2025-09-13T05:15:16.000Z</time></trkpt>
      <trkpt lat="-36.7395343" lon="147.2887166"><ele>1969.3</ele><time>2025-09-13T05:15:45.000Z</time></trkpt>
      <trkpt lat="-36.7393283" lon="147.2885285"><ele>1970.5</ele><time>2025-09-13T05:16:13.000Z</time></trkpt>
      <trkpt lat="-36.7391417" lon="147.2883864"><ele>1975.0</ele><time>2025-09-13T05:16:39.000Z</time></trkpt>
      <trkpt lat="-36.7389716" lon="147.2882112"><ele>1976.5</ele><time>2025-09-13T05:17:05.000Z</time></trkpt>
      <trkpt lat="-36.7387949" lon="147.2880466"><ele>1976.5</ele><time>2025-09-13T05:17:32.000Z</time></trkpt>
      <trkpt lat="-36.7385991" lon="147.2879016"><ele>1976.6</ele><time>2025-09-13T05:17:55.000Z</time></trkpt>
  </trkseg></trk>
</gpx>
