<?xml version="1.0" encoding="UTF-8"?>
<gpx version="1.1" creator="MountainMadness seed (approximate, from waypoints)" xmlns="http://www.topografix.com/GPX/1/1">
  <metadata><name>Single Cone — Snowcraft #1</name></metadata>
  <trk><name>Ski Field Ridge</name><trkseg>
      <trkpt lat="-45.0493027" lon="168.8073849"><ele>1609.5</ele><time>2025-08-02T04:30:18.000Z</time></trkpt>
      <trkpt lat="-45.0495179" lon="168.8073713"><ele>1621.0</ele><time>2025-08-02T04:30:41.000Z</time></trkpt>
      <trkpt lat="-45.0497535" lon="168.8073600"><ele>1632.8</ele><time>2025-08-02T04:31:04.000Z</time></trkpt>
      <trkpt lat="-45.0499681" lon="168.8073300"><ele>1647.7</ele><time>2025-08-02T04:31:28.000Z</time></trkpt>
      <trkpt lat="-45.0502193" lon="168.8073177"><ele>1663.0</ele><time>2025-08-02T04:31:46.000Z</time></trkpt>
      <trkpt lat="-45.0504295" lon="168.8073098"><ele>1679.6</ele><time>2025-08-02T04:32:11.000Z</time></trkpt>
      <trkpt lat="-45.0506658" lon="168.8073021"><ele>1690.5</ele><time>2025-08-02T04:32:31.000Z</time></trkpt>
      <trkpt lat="-45.0508836" lon="168.8072567"><ele>1703.2</ele><time>2025-08-02T04:32:56.000Z</time></trkpt>
      <trkpt lat="-45.0511158" lon="168.8072421"><ele>1717.0</ele><time>2025-08-02T04:33:16.000Z</time></trkpt>
      <trkpt lat="-45.0513317" lon="168.8072180"><ele>1729.4</ele><time>2025-08-02T04:33:35.000Z</time></trkpt>
      <trkpt lat="-45.0515796" lon="168.8071975"><ele>1742.5</ele><time>2025-08-02T04:34:00.000Z</time></trkpt>
      <trkpt lat="-45.0518074" lon="168.8071888"><ele>1753.0</ele><time>2025-08-02T04:34:20.000Z</time></trkpt>
      <trkpt lat="-45.0520205" lon="168.8071573"><ele>1765.6</ele><time>2025-08-02T04:34:43.000Z</time></trkpt>
      <trkpt lat="-45.0522419" lon="168.8071353"><ele>1780.8</ele><time>2025-08-02T04:35:05.000Z</time></trkpt>
      <trkpt lat="-45.0524744" lon="168.8071307"><ele>1793.4</ele><time>2025-08-02T04:35:27.000Z</time></trkpt>
      <trkpt lat="-45.0526961" lon="168.8071118"><ele>1808.3</ele><time>2025-08-02T04:35:53.000Z</time></trkpt>
      <trkpt lat="-45.0529212" lon="168.8070973"><ele>1820.3</ele><time>2025-08-02T04:36:20.000Z</time></trkpt>
      <trkpt lat="-45.0531652" lon="168.8070788"><ele>1830.9</ele><time>2025-08-02T04:36:40.000Z</time></trkpt>
      <trkpt lat="-45.0533867" lon="168.8070339"><ele>1834.7</ele><time>2025-08-02T04:37:04.000Z</time></trkpt>
      <trkpt lat="-45.0536029" lon="168.8070284"><ele>1833.3</ele><time>2025-08-02T04:37:27.000Z</time></trkpt>
      <trkpt lat="-45.0538230" lon="168.8069909"><ele>1829.2</ele><time>2025-08-02T04:37:50.000Z</time></trkpt>
      <trkpt lat="-45.0540613" lon="168.8069989"><ele>1826.9</ele><time>2025-08-02T04:38:16.000Z</time></trkpt>
      <trkpt lat="-45.0542931" lon="168.8069653"><ele>1825.9</ele><time>2025-08-02T04:38:40.000Z</time></trkpt>
      <trkpt lat="-45.0545245" lon="168.8069348"><ele>1830.1</ele><time>2025-08-02T04:39:06.000Z</time></trkpt>
      <trkpt lat="-45.0547365" lon="168.8069272"><ele>1829.0</ele><time>2025-08-02T04:39:26.000Z</time></trkpt>
      <trkpt lat="-45.0549733" lon="168.8069189"><ele>1825.8</ele><time>2025-08-02T04:39:50.000Z</time></trkpt>
      <trkpt lat="-45.0551986" lon="168.8068931"><ele>1817.3</ele><time>2025-08-02T04:40:13.000Z</time></trkpt>
      <trkpt lat="-45.0554323" lon="168.8068812"><ele>1812.7</ele><time>2025-08-02T04:40:40.000Z</time></trkpt>
      <trkpt lat="-45.0556376" lon="168.8068469"><ele>1811.2</ele><time>2025-08-02T04:41:06.000Z</time></trkpt>
      <trkpt lat="-45.0558664" lon="168.8068470"><ele>1811.0</ele><time>2025-08-02T04:41:27.000Z</time></trkpt>
      <trkpt lat="-45.0560995" lon="168.8068165"><ele>1813.6</ele><time>2025-08-02T04:41:47.000Z</time></trkpt>
      <trkpt lat="-45.0563181" lon="168.8067888"><ele>1814.4</ele><time>2025-08-02T04:42:14.000Z</time></trkpt>
      <trkpt lat="-45.0565444" lon="168.8067772"><ele>1817.4</ele><time>2025-08-02T04:42:39.000Z</time></trkpt>
      <trkpt lat="-45.0567930" lon="168.8067653"><ele>1819.1</ele><time>2025-08-02T04:43:02.000Z</time></trkpt>
      <trkpt lat="-45.0570051" lon="168.8067539"><ele>1826.8</ele><time>2025-08-02T04:43:26.000Z</time></trkpt>
      <trkpt lat="-45.0572401" lon="168.8067315"><ele>1836.8</ele><time>2025-08-02T04:43:48.000Z</time></trkpt>
      <trkpt lat="-45.0574762" lon="168.8066808"><ele>1844.3</ele><time>2025-08-02T04:44:14.000Z</time></trkpt>
      <trkpt lat="-45.0576927" lon="168.8066634"><ele>1853.7</ele><time>2025-08-02T04:44:40.000Z</time></trkpt>
      <trkpt lat="-45.0579083" lon="168.8066691"><ele>1859.0</ele><time>2025-08-02T04:45:04.000Z</time></trkpt>
      <trkpt lat="-45.0581359" lon="168.8066214"><ele>1870.8</ele><time>2025-08-02T04:45:28.000Z</time></trkpt>
      <trkpt lat="-45.0583684" lon="168.8066392"><ele>1885.1</ele><time>2025-08-02T04:45:52.000Z</time></trkpt>
      <trkpt lat="-45.0586099" lon="168.8065966"><ele>1902.6</ele><time>2025-08-02T04:46:19.000Z</time></trkpt>
      <trkpt lat="-45.0588161" lon="168.8066346"><ele>1913.6</ele><time>2025-08-02T04:46:43.000Z</time></trkpt>
      <trkpt lat="-45.0590557" lon="168.8066237"><ele>1925.8</ele><time>2025-08-02T04:47:06.000Z</time></trkpt>
      <trkpt lat="-45.0592664" lon="168.8066645"><ele>1938.2</ele><time>2025-08-02T04:47:34.000Z</time></trkpt>
      <trkpt lat="-45.0594925" lon="168.8066535"><ele>1952.0</ele><time>2025-08-02T04:47:56.000Z</time></trkpt>
      <trkpt lat="-45.0597319" lon="168.8066860"><ele>1962.2</ele><time>2025-08-02T04:48:25.000Z</time></trkpt>
      <trkpt lat="-45.0599449" lon="168.8067104"><ele>1981.8</ele><time>2025-08-02T04:48:49.000Z</time></trkpt>
      <trkpt lat="-45.0601570" lon="168.8067181"><ele>1991.4</ele><time>2025-08-02T04:49:14.000Z</time></trkpt>
      <trkpt lat="-45.0603999" lon="168.8067559"><ele>1985.8</ele><time>2025-08-02T04:49:37.000Z</time></trkpt>
      <trkpt lat="-45.0606276" lon="168.8067625"><ele>1968.2</ele><time>2025-08-02T04:50:02.000Z</time></trkpt>
      <trkpt lat="-45.0608484" lon="168.8067728"><ele>1954.6</ele><time>2025-08-02T04:50:29.000Z</time></trkpt>
      <trkpt lat="-45.0610513" lon="168.8068184"><ele>1938.0</ele><time>2025-08-02T04:50:54.000Z</time></trkpt>
      <trkpt lat="-45.0612917" lon="168.8068005"><ele>1919.4</ele><time>2025-08-02T04:51:21.000Z</time></trkpt>
      <trkpt lat="-45.0615130" lon="168.8068199"><ele>1905.9</ele><time>2025-08-02T04:51:49.000Z</time></trkpt>
      <trkpt lat="-45.0617324" lon="168.8068459"><ele>1891.4</ele><time>2025-08-02T04:52:14.000Z</time></trkpt>
      <trkpt lat="-45.0619495" lon="168.8068731"><ele>1877.4</ele><time>2025-08-02T04:52:37.000Z</time></trkpt>
      <trkpt lat="-45.0621647" lon="168.8068864"><ele>1865.1</ele><time>2025-08-02T04:53:01.000Z</time></trkpt>
      <trkpt lat="-45.0624080" lon="168.8069072"><ele>1855.7</ele><time>2025-08-02T04:53:29.000Z</time></trkpt>
      <trkpt lat="-45.0626401" lon="168.8069458"><ele>1847.7</ele><time>2025-08-02T04:53:55.000Z</time></trkpt>
      <trkpt lat="-45.0628460" lon="168.8069599"><ele>1842.6</ele><time>2025-08-02T04:54:16.000Z</time></trkpt>
      <trkpt lat="-45.0630850" lon="168.8069524"><ele>1837.5</ele><time>2025-08-02T04:54:39.000Z</time></trkpt>
      <trkpt lat="-45.0632869" lon="168.8069997"><ele>1834.7</ele><time>2025-08-02T04:55:00.000Z</time></trkpt>
      <trkpt lat="-45.0635282" lon="168.8070128"><ele>1832.3</ele><time>2025-08-02T04:55:20.000Z</time></trkpt>
      <trkpt lat="-45.0637361" lon="168.8070172"><ele>1828.5</ele><time>2025-08-02T04:55:46.000Z</time></trkpt>
      <trkpt lat="-45.0639692" lon="168.8070300"><ele>1829.1</ele><time>2025-08-02T04:56:09.000Z</time></trkpt>
      <trkpt lat="-45.0641874" lon="168.8070543"><ele>1827.1</ele><time>2025-08-02T04:56:34.000Z</time></trkpt>
      <trkpt lat="-45.0644168" lon="168.8070894"><ele>1825.9</ele><time>2025-08-02T04:56:59.000Z</time></trkpt>
      <trkpt lat="-45.0646439" lon="168.8070843"><ele>1829.6</ele><time>2025-08-02T04:57:25.000Z</time></trkpt>
      <trkpt lat="-45.0648673" lon="168.8071237"><ele>1832.0</ele><time>2025-08-02T04:57:49.000Z</time></trkpt>
      <trkpt lat="-45.0650822" lon="168.8071127"><ele>1836.6</ele><time>2025-08-02T04:58:12.000Z</time></trkpt>
      <trkpt lat="-45.0653134" lon="168.8071555"><ele>1841.0</ele><time>2025-08-02T04:58:32.000Z</time></trkpt>
      <trkpt lat="-45.0655363" lon="168.8071558"><ele>1847.9</ele><time>2025-08-02T04:58:54.000Z</time></trkpt>
      <trkpt lat="-45.0657644" lon="168.8071718"><ele>1854.0</ele><time>2025-08-02T04:59:21.000Z</time></trkpt>
      <trkpt lat="-45.0659806" lon="168.8072088"><ele>1868.5</ele><time>2025-08-02T04:59:42.000Z</time></trkpt>
      <trkpt lat="-45.0662041" lon="168.8072015"><ele>1884.7</ele><time>2025-08-02T05:00:07.000Z</time></trkpt>
      <trkpt lat="-45.0664181" lon="168.8072414"><ele>1905.1</ele><time>2025-08-02T05:00:32.000Z</time></trkpt>
      <trkpt lat="-45.0666600" lon="168.8072626"><ele>1922.7</ele><time>2025-08-02T05:00:58.000Z</time></trkpt>
      <trkpt lat="-45.0668619" lon="168.8072829"><ele>1936.7</ele><time>2025-08-02T05:01:22.000Z</time></trkpt>
      <trkpt lat="-45.0670889" lon="168.8072829"><ele>1950.6</ele><time>2025-08-02T05:01:50.000Z</time></trkpt>
      <trkpt lat="-45.0673132" lon="168.8072904"><ele>1964.0</ele><time>2025-08-02T05:02:15.000Z</time></trkpt>
      <trkpt lat="-45.0675568" lon="168.8073417"><ele>1974.4</ele><time>2025-08-02T05:02:40.000Z</time></trkpt>
      <trkpt lat="-45.0677812" lon="168.8073467"><ele>1986.5</ele><time>2025-08-02T05:03:01.000Z</time></trkpt>
      <trkpt lat="-45.0679809" lon="168.8073455"><ele>2000.9</ele><time>2025-08-02T05:03:23.000Z</time></trkpt>
      <trkpt lat="-45.0682065" lon="168.8073854"><ele>2011.0</ele><time>2025-08-02T05:03:49.000Z</time></trkpt>
      <trkpt lat="-45.0684340" lon="168.8074123"><ele>2028.0</ele><time>2025-08-02T05:04:18.000Z</time></trkpt>
      <trkpt lat="-45.0686609" lon="168.8074074"><ele>2041.4</ele><time>2025-08-02T05:04:41.000Z</time></trkpt>
      <trkpt lat="-45.0688753" lon="168.8074418"><ele>2055.0</ele><time>2025-08-02T05:05:06.000Z</time></trkpt>
      <trkpt lat="-45.0691174" lon="168.8074596"><ele>2075.5</ele><time>2025-08-02T05:05:29.000Z</time></trkpt>
      <trkpt lat="-45.0693432" lon="168.8074683"><ele>2095.2</ele><time>2025-08-02T05:05:52.000Z</time></trkpt>
      <trkpt lat="-45.0695434" lon="168.8074783"><ele>2118.5</ele><time>2025-08-02T05:06:18.000Z</time></trkpt>
      <trkpt lat="-45.0697743" lon="168.8075135"><ele>2137.1</ele><time>2025-08-02T05:06:48.000Z</time></trkpt>
      <trkpt lat="-45.0700119" lon="168.8075090"><ele>2153.7</ele><time>2025-08-02T05:07:17.000Z</time></trkpt>
      <trkpt lat="-45.0702148" lon="168.8075465"><ele>2175.4</ele><time>2025-08-02T05:07:40.000Z</time></trkpt>
      <trkpt lat="-45.0704637" lon="168.8075766"><ele>2204.6</ele><time>2025-08-02T05:08:04.000Z</time></trkpt>
      <trkpt lat="-45.0706710" lon="168.8075688"><ele>2239.3</ele><time>2025-08-02T05:08:31.000Z</time></trkpt>
      <trkpt lat="-45.0708959" lon="168.8075915"><ele>2269.3</ele><time>2025-08-02T05:08:59.000Z</time></trkpt>
  </trkseg></trk>
</gpx>
